[{"iso_3166_1_alpha3":"ABW","extra":{"geonameid":3577279,"edgar":"1C","itu":"ABW","marc":"aw","wmo":"NU","ds":"0","fifa":"ARU","fips":"AA","gaul":14,"ioc":"ARU","cowc":"0","cown":0,"fao":0,"imf":314,"ar5":"LAM","address_format":null,"eu_member":"null","states":null}},{"iso_3166_1_alpha3":"AFG","extra":{"geonameid":1149361,"edgar":"B2","itu":"AFG","marc":"af","wmo":"AF","ds":"AFG","fifa":"AFG","fips":"AF","gaul":1,"ioc":"AFG","cowc":"AFG","cown":700,"fao":2,"imf":512,"ar5":"ASIA","address_format":null,"eu_member":"null","states":null}},{"iso_3166_1_alpha3":"AGO","extra":{"geonameid":3351879,"edgar":"B7","itu":"AGL","marc":"ao","wmo":"AN","ds":"0","fifa":"ANG","fips":"AO","gaul":8,"ioc":"ANG","cowc":"ANG","cown":540,"fao":7,"imf":614,"ar5":"MAF","address_format":null,"eu_member":"null","states":null}},{"iso_3166_1_alpha3":"AIA","extra":{"geonameid":3573511,"edgar":"1A","itu":"AIA","marc":"am","wmo":"0","ds":"0","fifa":"AIA","fips":"AV","gaul":9,"ioc":"AIA","cowc":"0","cown":0,"fao":0,"imf":312,"ar5":"LAM","address_format":null,"eu_member":"null","states":null}},{"iso_3166_1_alpha3":"ALA","extra":{"geonameid":661882,"edgar":"0","itu":"0","marc":"0","wmo":"0","ds":"FIN","fifa":"ALD","fips":"0","gaul":1242,"ioc":"0","cowc":"0","cown":0,"fao":0,"imf":0,"ar5":"OECD1990","address_format":null,"eu_member":"null","states":null}},{"iso_3166_1_alpha3":"ALB","extra":{"geonameid":783754,"edgar":"B3","itu":"ALB","marc":"aa","wmo":"AB","ds":"AL","fifa":"ALB","fips":"AL","gaul":3,"ioc":"ALB","cowc":"ALB","cown":339,"fao":3,"imf":914,"ar5":"EIT","address_format":null,"eu_member":"null","states":null}},{"iso_3166_1_alpha3":"AND","extra":{"geonameid":3041565,"edgar":"B6","itu":"AND","marc":"an","wmo":"0","ds":"AND","fifa":"AND","fips":"AN","gaul":7,"ioc":"AND","cowc":"AND","cown":232,"fao":6,"imf":0,"ar5":"OECD1990","address_format":null,"eu_member":"null","states":null}},{"iso_3166_1_alpha3":"ARE","extra":{"geonameid":290557,"edgar":"C0","itu":"UAE","marc":"ts","wmo":"ER","ds":"0","fifa":"UAE","fips":"AE","gaul":255,"ioc":"UAE","cowc":"UAE","cown":696,"fao":225,"imf":466,"ar5":"MAF","address_format":"{{recipient}}\n{{street}}\n{{postalcode}} {{city}}\n{{country}}","eu_member":"null","states":null}},{"iso_3166_1_alpha3":"ARG","extra":{"geonameid":3865483,"edgar":"C1","itu":"ARG","marc":"ag","wmo":"AG","ds":"RA","fifa":"ARG","fips":"AR","gaul":12,"ioc":"ARG","cowc":"ARG","cown":160,"fao":9,"imf":213,"ar5":"LAM","address_format":"{{recipient}}\n{{street}}\n{{postalcode}} {{city}}\n{{region}}\n{{country}}","eu_member":"null","states":null}},{"iso_3166_1_alpha3":"ARM","extra":{"geonameid":174982,"edgar":"1B","itu":"ARM","marc":"ai","wmo":"AY","ds":"AM","fifa":"ARM","fips":"AM","gaul":13,"ioc":"ARM","cowc":"ARM","cown":371,"fao":1,"imf":911,"ar5":"EIT","address_format":null,"eu_member":"null","states":null}},{"iso_3166_1_alpha3":"ASM","extra":{"geonameid":5880801,"edgar":"B5","itu":"SMA","marc":"as","wmo":"0","ds":"USA","fifa":"ASA","fips":"AQ","gaul":5,"ioc":"ASA","cowc":"0","cown":0,"fao":0,"imf":859,"ar5":"ASIA","address_format":null,"eu_member":"null","states":null}},{"iso_3166_1_alpha3":"ATA","extra":{"geonameid":6697173,"edgar":"0","itu":"0","marc":"ay","wmo":"AA","ds":"0","fifa":"ROS","fips":"AY","gaul":10,"ioc":"0","cowc":"0","cown":0,"fao":0,"imf":0,"ar5":"LAM","address_format":null,"eu_member":"null","states":null}},{"iso_3166_1_alpha3":"ATF","extra":{"geonameid":1546748,"edgar":"0","itu":"0","marc":"fs","wmo":"0","ds":"F","fifa":"0","fips":"FS","gaul":88,"ioc":"0","cowc":"0","cown":0,"fao":0,"imf":0,"ar5":"LAM","address_format":null,"eu_member":"null","states":null}},{"iso_3166_1_alpha3":"ATG","extra":{"geonameid":3576396,"edgar":"B9","itu":"ATG","marc":"aq","wmo":"AT","ds":"0","fifa":"ATG","fips":"AC","gaul":11,"ioc":"ANT","cowc":"AAB","cown":58,"fao":8,"imf":311,"ar5":"LAM","address_format":null,"eu_member":"null","states":null}},{"iso_3166_1_alpha3":"AUS","extra":{"geonameid":2077456,"edgar":"C3","itu":"AUS","marc":"at","wmo":"AU","ds":"AUS","fifa":"AUS","fips":"AS","gaul":17,"ioc":"AUS","cowc":"AUL","cown":900,"fao":10,"imf":193,"ar5":"OECD1990","address_format":"{{recipient}}\n{{street}}\n{{city}} {{region_short}} {{postalcode}}\n{{country}}","eu_member":"null","states":null}},{"iso_3166_1_alpha3":"AUT","extra":{"geonameid":2782113,"edgar":"C4","itu":"AUT","marc":"au","wmo":"OS","ds":"A","fifa":"AUT","fips":"AU","gaul":18,"ioc":"AUT","cowc":"AUS","cown":305,"fao":11,"imf":122,"ar5":"OECD1990","address_format":"{{recipient}}\n{{street}}\n{{postalcode}} {{city}}\n{{country}}","eu_member":"true","states":null}},{"iso_3166_1_alpha3":"AZE","extra":{"geonameid":587116,"edgar":"1D","itu":"AZE","marc":"aj","wmo":"AJ","ds":"AZ","fifa":"AZE","fips":"AJ","gaul":19,"ioc":"AZE","cowc":"AZE","cown":373,"fao":52,"imf":912,"ar5":"EIT","address_format":null,"eu_member":"null","states":null}},{"iso_3166_1_alpha3":"BDI","extra":{"geonameid":433561,"edgar":"E2","itu":"BDI","marc":"bd","wmo":"BI","ds":"RU","fifa":"BDI","fips":"BY","gaul":43,"ioc":"BDI","cowc":"BUI","cown":516,"fao":29,"imf":618,"ar5":"MAF","address_format":null,"eu_member":"null","states":null}},{"iso_3166_1_alpha3":"BEL","extra":{"geonameid":2802361,"edgar":"C9","itu":"BEL","marc":"be","wmo":"BX","ds":"B","fifa":"BEL","fips":"BE","gaul":27,"ioc":"BEL","cowc":"BEL","cown":211,"fao":255,"imf":124,"ar5":"OECD1990","address_format":"{{recipient}}\n{{street}}\n{{postalcode}} {{city}}\n{{country}}","eu_member":"true","states":null}},{"iso_3166_1_alpha3":"BEN","extra":{"geonameid":2395170,"edgar":"G6","itu":"BEN","marc":"dm","wmo":"BJ","ds":"DY","fifa":"BEN","fips":"BN","gaul":29,"ioc":"BEN","cowc":"BEN","cown":434,"fao":53,"imf":638,"ar5":"MAF","address_format":null,"eu_member":"null","states":null}},{"iso_3166_1_alpha3":"BFA","extra":{"geonameid":2361809,"edgar":"X2","itu":"BFA","marc":"uv","wmo":"HV","ds":"BF","fifa":"BFA","fips":"UV","gaul":42,"ioc":"BUR","cowc":"BFO","cown":439,"fao":233,"imf":748,"ar5":"MAF","address_format":null,"eu_member":"null","states":null}},{"iso_3166_1_alpha3":"BGD","extra":{"geonameid":1210997,"edgar":"C7","itu":"BGD","marc":"bg","wmo":"BW","ds":"BD","fifa":"BAN","fips":"BG","gaul":23,"ioc":"BAN","cowc":"BNG","cown":771,"fao":16,"imf":513,"ar5":"ASIA","address_format":null,"eu_member":"null","states":null}},{"iso_3166_1_alpha3":"BGR","extra":{"geonameid":732800,"edgar":"E0","itu":"BUL","marc":"bu","wmo":"BU","ds":"BG","fifa":"BUL","fips":"BU","gaul":41,"ioc":"BUL","cowc":"BUL","cown":355,"fao":27,"imf":918,"ar5":"EIT","address_format":"{{recipient}}\n{{street}}\n{{postalcode}} {{city}}\n{{country}}","eu_member":"true","states":null}},{"iso_3166_1_alpha3":"BHR","extra":{"geonameid":290291,"edgar":"C6","itu":"BHR","marc":"ba","wmo":"BN","ds":"BRN","fifa":"BHR","fips":"BA","gaul":21,"ioc":"BRN","cowc":"BAH","cown":692,"fao":13,"imf":419,"ar5":"MAF","address_format":"{{recipient}}\n{{street}}\n{{postalcode}} {{city}}\n{{country}}","eu_member":"null","states":null}},{"iso_3166_1_alpha3":"BHS","extra":{"geonameid":3572887,"edgar":"C5","itu":"BAH","marc":"bf","wmo":"BA","ds":"BS","fifa":"BAH","fips":"BF","gaul":20,"ioc":"BAH","cowc":"BHM","cown":31,"fao":12,"imf":313,"ar5":"LAM","address_format":null,"eu_member":"null","states":null}},{"iso_3166_1_alpha3":"BIH","extra":{"geonameid":3277605,"edgar":"1E","itu":"BIH","marc":"bn","wmo":"BG","ds":"BIH","fifa":"BIH","fips":"BK","gaul":34,"ioc":"BIH","cowc":"BOS","cown":346,"fao":80,"imf":963,"ar5":"EIT","address_format":"{{recipient}}\n{{street}}\n{{postalcode}} {{city}}\n{{country}}","eu_member":"null","states":null}},{"iso_3166_1_alpha3":"BLM","extra":{"geonameid":3578476,"edgar":"0","itu":"0","marc":"sc","wmo":"0","ds":"0","fifa":"0","fips":"TB","gaul":0,"ioc":"0","cowc":"0","cown":0,"fao":0,"imf":0,"ar5":"0","address_format":null,"eu_member":"null","states":null}},{"iso_3166_1_alpha3":"SHN","extra":{"geonameid":3370751,"edgar":"0","itu":"SHN","marc":"xj","wmo":"HE","ds":"0","fifa":"SHN","fips":"SH","gaul":207,"ioc":"HEL","cowc":"0","cown":0,"fao":0,"imf":856,"ar5":"MAF","address_format":null,"eu_member":"null","states":null}},{"iso_3166_1_alpha3":"BLR","extra":{"geonameid":630336,"edgar":"1F","itu":"BLR","marc":"bw","wmo":"BY","ds":"BY","fifa":"BLR","fips":"BO","gaul":26,"ioc":"BLR","cowc":"BLR","cown":370,"fao":57,"imf":913,"ar5":"EIT","address_format":null,"eu_member":"null","states":null}},{"iso_3166_1_alpha3":"BLZ","extra":{"geonameid":3582678,"edgar":"D1","itu":"BLZ","marc":"bh","wmo":"BH","ds":"BZ","fifa":"BLZ","fips":"BH","gaul":28,"ioc":"BIZ","cowc":"BLZ","cown":80,"fao":23,"imf":339,"ar5":"LAM","address_format":null,"eu_member":"null","states":null}},{"iso_3166_1_alpha3":"BMU","extra":{"geonameid":3573345,"edgar":"D0","itu":"BER","marc":"bm","wmo":"BE","ds":"0","fifa":"BER","fips":"BD","gaul":30,"ioc":"BER","cowc":"0","cown":0,"fao":0,"imf":319,"ar5":"LAM","address_format":null,"eu_member":"null","states":null}},{"iso_3166_1_alpha3":"BOL","extra":{"geonameid":3923057,"edgar":"0","itu":"BOL","marc":"bo","wmo":"BO","ds":"BOL","fifa":"BOL","fips":"BL","gaul":33,"ioc":"BOL","cowc":"BOL","cown":145,"fao":19,"imf":218,"ar5":"LAM","address_format":null,"eu_member":"null","states":null}},{"iso_3166_1_alpha3":"BES","extra":{"geonameid":7626844,"edgar":"0","itu":"ATN","marc":"ca","wmo":"NU","ds":"0","fifa":"ANT","fips":"NL","gaul":176,"ioc":"AHO","cowc":"0","cown":0,"fao":0,"imf":0,"ar5":"0","address_format":null,"eu_member":"null","states":null}},{"iso_3166_1_alpha3":"BRA","extra":{"geonameid":3469034,"edgar":"D5","itu":"B","marc":"bl","wmo":"BZ","ds":"BR","fifa":"BRA","fips":"BR","gaul":37,"ioc":"BRA","cowc":"BRA","cown":140,"fao":21,"imf":223,"ar5":"LAM","address_format":"{{recipient}}\n{{street}}\n{{postalcode}} {{city}} {{region_short}}\n{{country}}","eu_member":"null","states":null}},{"iso_3166_1_alpha3":"BRB","extra":{"geonameid":3374084,"edgar":"C8","itu":"BRB","marc":"bb","wmo":"BR","ds":"BDS","fifa":"BRB","fips":"BB","gaul":24,"ioc":"BAR","cowc":"BAR","cown":53,"fao":14,"imf":316,"ar5":"LAM","address_format":null,"eu_member":"null","states":null}},{"iso_3166_1_alpha3":"BRN","extra":{"geonameid":1820814,"edgar":"D9","itu":"BRU","marc":"bx","wmo":"BD","ds":"BRU","fifa":"BRU","fips":"BX","gaul":40,"ioc":"BRU","cowc":"BRU","cown":835,"fao":26,"imf":516,"ar5":"ASIA","address_format":null,"eu_member":"null","states":null}},{"iso_3166_1_alpha3":"BTN","extra":{"geonameid":1252634,"edgar":"D2","itu":"BTN","marc":"bt","wmo":"0","ds":"0","fifa":"BHU","fips":"BT","gaul":31,"ioc":"BHU","cowc":"BHU","cown":760,"fao":18,"imf":514,"ar5":"ASIA","address_format":null,"eu_member":"null","states":null}},{"iso_3166_1_alpha3":"BVT","extra":{"geonameid":3371123,"edgar":"0","itu":"0","marc":"bv","wmo":"BV","ds":"0","fifa":"0","fips":"BV","gaul":36,"ioc":"0","cowc":"0","cown":0,"fao":0,"imf":0,"ar5":"LAM","address_format":null,"eu_member":"null","states":null}},{"iso_3166_1_alpha3":"BWA","extra":{"geonameid":933860,"edgar":"B1","itu":"BOT","marc":"bs","wmo":"BC","ds":"BW","fifa":"BOT","fips":"BC","gaul":35,"ioc":"BOT","cowc":"BOT","cown":571,"fao":20,"imf":616,"ar5":"MAF","address_format":null,"eu_member":"null","states":null}},{"iso_3166_1_alpha3":"CAF","extra":{"geonameid":239880,"edgar":"F0","itu":"CAF","marc":"cx","wmo":"CE","ds":"RCA","fifa":"CTA","fips":"CT","gaul":49,"ioc":"CAF","cowc":"CEN","cown":482,"fao":37,"imf":626,"ar5":"MAF","address_format":null,"eu_member":"null","states":null}},{"iso_3166_1_alpha3":"CAN","extra":{"geonameid":6251999,"edgar":"0","itu":"CAN","marc":"xxc","wmo":"CN","ds":"CDN","fifa":"CAN","fips":"CA","gaul":46,"ioc":"CAN","cowc":"CAN","cown":20,"fao":33,"imf":156,"ar5":"OECD1990","address_format":"{{recipient}}\n{{street}}\n{{city}} {{region_short}} {{postalcode}}\n{{country}}","eu_member":"null","states":null}},{"iso_3166_1_alpha3":"CCK","extra":{"geonameid":1547376,"edgar":"0","itu":"ICO","marc":"xb","wmo":"KK","ds":"AUS","fifa":"CCK","fips":"CK","gaul":56,"ioc":"0","cowc":"0","cown":0,"fao":0,"imf":0,"ar5":"ASIA","address_format":null,"eu_member":"null","states":null}},{"iso_3166_1_alpha3":"CHE","extra":{"geonameid":2658434,"edgar":"V8","itu":"SUI","marc":"sz","wmo":"SW","ds":"CH","fifa":"SUI","fips":"SZ","gaul":237,"ioc":"SUI","cowc":"SWZ","cown":225,"fao":211,"imf":146,"ar5":"OECD1990","address_format":"{{recipient}}\n{{street}}\n{{postalcode}} {{city}}\n{{country}}","eu_member":"null","states":null}},{"iso_3166_1_alpha3":"CHL","extra":{"geonameid":3895114,"edgar":"F3","itu":"CHL","marc":"cl","wmo":"CH","ds":"RCH","fifa":"CHI","fips":"CI","gaul":51,"ioc":"CHI","cowc":"CHL","cown":155,"fao":40,"imf":228,"ar5":"LAM","address_format":null,"eu_member":"null","states":null}},{"iso_3166_1_alpha3":"CHN","extra":{"geonameid":1814991,"edgar":"F4","itu":"CHN","marc":"cc","wmo":"CI","ds":"0","fifa":"CHN","fips":"CH","gaul":53,"ioc":"CHN","cowc":"CHN","cown":710,"fao":351,"imf":924,"ar5":"ASIA","address_format":"{{recipient}}\n{{street}}\n{{postalcode}} {{city}} {{region_short}}\n{{country}}","eu_member":"null","states":null}},{"iso_3166_1_alpha3":"CIV","extra":{"geonameid":2287781,"edgar":"0","itu":"CTI","marc":"iv","wmo":"IV","ds":"CI","fifa":"CIV","fips":"IV","gaul":66,"ioc":"CIV","cowc":"CDI","cown":437,"fao":107,"imf":662,"ar5":"MAF","address_format":null,"eu_member":"null","states":null}},{"iso_3166_1_alpha3":"CMR","extra":{"geonameid":2233387,"edgar":"E4","itu":"CME","marc":"cm","wmo":"CM","ds":"CAM","fifa":"CMR","fips":"CM","gaul":45,"ioc":"CMR","cowc":"CAO","cown":471,"fao":32,"imf":622,"ar5":"MAF","address_format":null,"eu_member":"null","states":null}},{"iso_3166_1_alpha3":"COD","extra":{"geonameid":203312,"edgar":"0","itu":"COD","marc":"cg","wmo":"ZR","ds":"ZRE","fifa":"COD","fips":"CG","gaul":68,"ioc":"COD","cowc":"DRC","cown":490,"fao":250,"imf":636,"ar5":"MAF","address_format":null,"eu_member":"null","states":null}},{"iso_3166_1_alpha3":"COG","extra":{"geonameid":2260494,"edgar":"G0","itu":"COG","marc":"cf","wmo":"CG","ds":"RCB","fifa":"CGO","fips":"CF","gaul":59,"ioc":"CGO","cowc":"CON","cown":484,"fao":46,"imf":634,"ar5":"MAF","address_format":null,"eu_member":"null","states":null}},{"iso_3166_1_alpha3":"COK","extra":{"geonameid":1899402,"edgar":"G1","itu":"CKH","marc":"cw","wmo":"KU","ds":"NZ","fifa":"COK","fips":"CW","gaul":60,"ioc":"COK","cowc":"0","cown":0,"fao":47,"imf":815,"ar5":"ASIA","address_format":null,"eu_member":"null","states":null}},{"iso_3166_1_alpha3":"COL","extra":{"geonameid":3686110,"edgar":"F8","itu":"CLM","marc":"ck","wmo":"CO","ds":"CO","fifa":"COL","fips":"CO","gaul":57,"ioc":"COL","cowc":"COL","cown":100,"fao":44,"imf":233,"ar5":"LAM","address_format":null,"eu_member":"null","states":null}},{"iso_3166_1_alpha3":"COM","extra":{"geonameid":921929,"edgar":"F9","itu":"COM","marc":"cq","wmo":"IC","ds":"0","fifa":"COM","fips":"CN","gaul":58,"ioc":"COM","cowc":"COM","cown":581,"fao":45,"imf":632,"ar5":"MAF","address_format":null,"eu_member":"null","states":null}},{"iso_3166_1_alpha3":"CPV","extra":{"geonameid":3374766,"edgar":"0","itu":"CPV","marc":"cv","wmo":"CV","ds":"0","fifa":"CPV","fips":"CV","gaul":47,"ioc":"CPV","cowc":"CAP","cown":402,"fao":35,"imf":624,"ar5":"MAF","address_format":null,"eu_member":"null","states":null}},{"iso_3166_1_alpha3":"CRI","extra":{"geonameid":3624060,"edgar":"G2","itu":"CTR","marc":"cr","wmo":"CS","ds":"CR","fifa":"CRC","fips":"CS","gaul":61,"ioc":"CRC","cowc":"COS","cown":94,"fao":48,"imf":238,"ar5":"LAM","address_format":null,"eu_member":"null","states":null}},{"iso_3166_1_alpha3":"CUB","extra":{"geonameid":3562981,"edgar":"G3","itu":"CUB","marc":"cu","wmo":"CU","ds":"C","fifa":"CUB","fips":"CU","gaul":63,"ioc":"CUB","cowc":"CUB","cown":40,"fao":49,"imf":928,"ar5":"LAM","address_format":null,"eu_member":"null","states":null}},{"iso_3166_1_alpha3":"CUW","extra":{"geonameid":7626836,"edgar":"0","itu":"0","marc":"co","wmo":"0","ds":"0","fifa":"0","fips":"UC","gaul":0,"ioc":"0","cowc":"0","cown":0,"fao":0,"imf":354,"ar5":"LAM","address_format":null,"eu_member":"null","states":null}},{"iso_3166_1_alpha3":"CXR","extra":{"geonameid":2078138,"edgar":"0","itu":"CHR","marc":"xa","wmo":"KI","ds":"AUS","fifa":"CXR","fips":"KT","gaul":54,"ioc":"0","cowc":"0","cown":0,"fao":0,"imf":0,"ar5":"ASIA","address_format":null,"eu_member":"null","states":null}},{"iso_3166_1_alpha3":"CYM","extra":{"geonameid":3580718,"edgar":"E9","itu":"CYM","marc":"cj","wmo":"GC","ds":"0","fifa":"CAY","fips":"CJ","gaul":48,"ioc":"CAY","cowc":"0","cown":0,"fao":0,"imf":377,"ar5":"LAM","address_format":null,"eu_member":"null","states":null}},{"iso_3166_1_alpha3":"CYP","extra":{"geonameid":146669,"edgar":"G4","itu":"CYP","marc":"cy","wmo":"CY","ds":"CY","fifa":"CYP","fips":"CY","gaul":64,"ioc":"CYP","cowc":"CYP","cown":352,"fao":50,"imf":423,"ar5":"EIT","address_format":null,"eu_member":"true","states":null}},{"iso_3166_1_alpha3":"CZE","extra":{"geonameid":3077311,"edgar":"2N","itu":"CZE","marc":"xr","wmo":"CZ","ds":"CZ","fifa":"CZE","fips":"EZ","gaul":65,"ioc":"CZE","cowc":"CZR","cown":316,"fao":167,"imf":935,"ar5":"EIT","address_format":"{{recipient}}\n{{street}}\n{{postalcode}} {{city}}\n{{country}}","eu_member":"true","states":null}},{"iso_3166_1_alpha3":"DEU","extra":{"geonameid":2921044,"edgar":"2M","itu":"D","marc":"gw","wmo":"DL","ds":"D","fifa":"GER","fips":"GM","gaul":93,"ioc":"GER","cowc":"GMY","cown":255,"fao":79,"imf":134,"ar5":"OECD1990","address_format":"{{recipient}}\n{{street}}\n{{postalcode}} {{city}}\n{{country}}","eu_member":"true","states":null}},{"iso_3166_1_alpha3":"DJI","extra":{"geonameid":223816,"edgar":"1G","itu":"DJI","marc":"ft","wmo":"DJ","ds":"0","fifa":"DJI","fips":"DJ","gaul":70,"ioc":"DJI","cowc":"DJI","cown":522,"fao":72,"imf":611,"ar5":"MAF","address_format":null,"eu_member":"null","states":null}},{"iso_3166_1_alpha3":"DMA","extra":{"geonameid":3575830,"edgar":"G9","itu":"DMA","marc":"dq","wmo":"DO","ds":"WD","fifa":"DMA","fips":"DO","gaul":71,"ioc":"DMA","cowc":"DMA","cown":54,"fao":55,"imf":321,"ar5":"LAM","address_format":null,"eu_member":"null","states":null}},{"iso_3166_1_alpha3":"DNK","extra":{"geonameid":2623032,"edgar":"G7","itu":"DNK","marc":"dk","wmo":"DN","ds":"DK","fifa":"DEN","fips":"DA","gaul":69,"ioc":"DEN","cowc":"DEN","cown":390,"fao":54,"imf":128,"ar5":"OECD1990","address_format":"{{recipient}}\n{{street}}\n{{postalcode}} {{city}}\n{{region}}\n{{country}}","eu_member":"true","states":null}},{"iso_3166_1_alpha3":"DOM","extra":{"geonameid":3508796,"edgar":"G8","itu":"DOM","marc":"dr","wmo":"DR","ds":"DOM","fifa":"DOM","fips":"DR","gaul":72,"ioc":"DOM","cowc":"DOM","cown":42,"fao":56,"imf":243,"ar5":"LAM","address_format":null,"eu_member":"null","states":null}},{"iso_3166_1_alpha3":"DZA","extra":{"geonameid":2589581,"edgar":"B4","itu":"ALG","marc":"ae","wmo":"AL","ds":"DZ","fifa":"ALG","fips":"AG","gaul":4,"ioc":"ALG","cowc":"ALG","cown":615,"fao":4,"imf":612,"ar5":"MAF","address_format":null,"eu_member":"null","states":null}},{"iso_3166_1_alpha3":"ECU","extra":{"geonameid":3658394,"edgar":"H1","itu":"EQA","marc":"ec","wmo":"EQ","ds":"EC","fifa":"ECU","fips":"EC","gaul":73,"ioc":"ECU","cowc":"ECU","cown":130,"fao":58,"imf":248,"ar5":"LAM","address_format":null,"eu_member":"null","states":null}},{"iso_3166_1_alpha3":"EGY","extra":{"geonameid":357994,"edgar":"H2","itu":"EGY","marc":"ua","wmo":"EG","ds":"ET","fifa":"EGY","fips":"EG","gaul":40765,"ioc":"EGY","cowc":"EGY","cown":651,"fao":59,"imf":469,"ar5":"MAF","address_format":"{{recipient}}\n{{street}}\n{{postalcode}} {{city}}\n{{country}}","eu_member":"null","states":null}},{"iso_3166_1_alpha3":"ERI","extra":{"geonameid":338010,"edgar":"1J","itu":"ERI","marc":"ea","wmo":"0","ds":"0","fifa":"ERI","fips":"ER","gaul":77,"ioc":"ERI","cowc":"ERI","cown":531,"fao":178,"imf":643,"ar5":"MAF","address_format":null,"eu_member":"null","states":null}},{"iso_3166_1_alpha3":"ESH","extra":{"geonameid":2461445,"edgar":"U5","itu":"AOE","marc":"ss","wmo":"0","ds":"0","fifa":"SAH","fips":"WI","gaul":268,"ioc":"0","cowc":"0","cown":0,"fao":0,"imf":0,"ar5":"MAF","address_format":null,"eu_member":"null","states":null}},{"iso_3166_1_alpha3":"ESP","extra":{"geonameid":2510769,"edgar":"U3","itu":"E","marc":"sp","wmo":"SP","ds":"E","fifa":"ESP","fips":"SP","gaul":229,"ioc":"ESP","cowc":"SPN","cown":230,"fao":203,"imf":184,"ar5":"OECD1990","address_format":"{{recipient}}\n{{street}}\n{{postalcode}} {{city}}\n{{region}}\n{{country}}","eu_member":"true","states":null}},{"iso_3166_1_alpha3":"EST","extra":{"geonameid":453733,"edgar":"1H","itu":"EST","marc":"er","wmo":"EO","ds":"EST","fifa":"EST","fips":"EN","gaul":78,"ioc":"EST","cowc":"EST","cown":366,"fao":63,"imf":939,"ar5":"EIT","address_format":null,"eu_member":"true","states":null}},{"iso_3166_1_alpha3":"ETH","extra":{"geonameid":337996,"edgar":"H5","itu":"ETH","marc":"et","wmo":"ET","ds":"ETH","fifa":"ETH","fips":"ET","gaul":79,"ioc":"ETH","cowc":"ETH","cown":530,"fao":238,"imf":644,"ar5":"MAF","address_format":null,"eu_member":"null","states":null}},{"iso_3166_1_alpha3":"FIN","extra":{"geonameid":660013,"edgar":"H9","itu":"FIN","marc":"fi","wmo":"FI","ds":"FIN","fifa":"FIN","fips":"FI","gaul":84,"ioc":"FIN","cowc":"FIN","cown":375,"fao":67,"imf":172,"ar5":"OECD1990","address_format":"{{recipient}}\n{{street}}\n{{postalcode}} {{city}}\n{{country}}","eu_member":"true","states":null}},{"iso_3166_1_alpha3":"FJI","extra":{"geonameid":2205218,"edgar":"H8","itu":"FJI","marc":"fj","wmo":"FJ","ds":"FJI","fifa":"FIJ","fips":"FJ","gaul":83,"ioc":"FIJ","cowc":"FIJ","cown":950,"fao":66,"imf":819,"ar5":"ASIA","address_format":null,"eu_member":"null","states":null}},{"iso_3166_1_alpha3":"FLK","extra":{"geonameid":3474414,"edgar":"H7","itu":"FLK","marc":"fk","wmo":"FK","ds":"0","fifa":"FLK","fips":"FK","gaul":81,"ioc":"FLK","cowc":"0","cown":0,"fao":0,"imf":323,"ar5":"LAM","address_format":null,"eu_member":"null","states":null}},{"iso_3166_1_alpha3":"FRA","extra":{"geonameid":3017382,"edgar":"I0","itu":"F","marc":"fr","wmo":"FR","ds":"F","fifa":"FRA","fips":"FR","gaul":85,"ioc":"FRA","cowc":"FRN","cown":220,"fao":68,"imf":132,"ar5":"OECD1990","address_format":"{{recipient}}\n{{street}}\n{{postalcode}} {{city}}\n{{country}}","eu_member":"true","states":null}},{"iso_3166_1_alpha3":"FRO","extra":{"geonameid":2622320,"edgar":"0","itu":"FRO","marc":"fa","wmo":"FA","ds":"FO","fifa":"FRO","fips":"FO","gaul":82,"ioc":"FAR","cowc":"0","cown":0,"fao":64,"imf":816,"ar5":"OECD1990","address_format":null,"eu_member":"null","states":null}},{"iso_3166_1_alpha3":"FSM","extra":{"geonameid":2081918,"edgar":"0","itu":"FSM","marc":"fm","wmo":"0","ds":"0","fifa":"FSM","fips":"FM","gaul":163,"ioc":"FSM","cowc":"FSM","cown":987,"fao":145,"imf":868,"ar5":"ASIA","address_format":null,"eu_member":"null","states":null}},{"iso_3166_1_alpha3":"GAB","extra":{"geonameid":2400553,"edgar":"I5","itu":"GAB","marc":"go","wmo":"GO","ds":"G","fifa":"GAB","fips":"GB","gaul":89,"ioc":"GAB","cowc":"GAB","cown":481,"fao":74,"imf":646,"ar5":"MAF","address_format":null,"eu_member":"null","states":null}},{"iso_3166_1_alpha3":"GBR","extra":{"geonameid":2635167,"edgar":"0","itu":"G","marc":"xxk","wmo":"UK","ds":"GB","fifa":"ENG,NIR,SCO,WAL","fips":"UK","gaul":256,"ioc":"GBR","cowc":"UKG","cown":200,"fao":229,"imf":112,"ar5":"OECD1990","address_format":"{{recipient}}\n{{street}}\n{{city}}\n{{region}}\n{{postalcode}}\n{{country}}","eu_member":"true","states":null}},{"iso_3166_1_alpha3":"GEO","extra":{"geonameid":614540,"edgar":"2Q","itu":"GEO","marc":"gs","wmo":"GG","ds":"GE","fifa":"GEO","fips":"GG","gaul":92,"ioc":"GEO","cowc":"GRG","cown":372,"fao":73,"imf":915,"ar5":"EIT","address_format":null,"eu_member":"null","states":null}},{"iso_3166_1_alpha3":"GGY","extra":{"geonameid":3042362,"edgar":"Y7","itu":"0","marc":"uik","wmo":"0","ds":"GBG","fifa":"GBG","fips":"GK","gaul":104,"ioc":"0","cowc":"0","cown":0,"fao":0,"imf":0,"ar5":"OECD1990","address_format":null,"eu_member":"null","states":null}},{"iso_3166_1_alpha3":"GHA","extra":{"geonameid":2300660,"edgar":"J0","itu":"GHA","marc":"gh","wmo":"GH","ds":"GH","fifa":"GHA","fips":"GH","gaul":94,"ioc":"GHA","cowc":"GHA","cown":452,"fao":81,"imf":652,"ar5":"MAF","address_format":null,"eu_member":"null","states":null}},{"iso_3166_1_alpha3":"GIB","extra":{"geonameid":2411586,"edgar":"J1","itu":"GIB","marc":"gi","wmo":"GI","ds":"GBZ","fifa":"GBZ","fips":"GI","gaul":95,"ioc":"GIB","cowc":"0","cown":0,"fao":0,"imf":823,"ar5":"OECD1990","address_format":null,"eu_member":"null","states":null}},{"iso_3166_1_alpha3":"GIN","extra":{"geonameid":2420477,"edgar":"J9","itu":"GUI","marc":"gv","wmo":"GN","ds":"RG","fifa":"GUI","fips":"GV","gaul":106,"ioc":"GUI","cowc":"GUI","cown":438,"fao":90,"imf":656,"ar5":"MAF","address_format":null,"eu_member":"null","states":null}},{"iso_3166_1_alpha3":"GLP","extra":{"geonameid":3579143,"edgar":"J6","itu":"GDL","marc":"gp","wmo":"MF","ds":"F","fifa":"GLP","fips":"GP","gaul":100,"ioc":"GUD","cowc":"0","cown":0,"fao":0,"imf":329,"ar5":"LAM","address_format":null,"eu_member":"null","states":null}},{"iso_3166_1_alpha3":"GMB","extra":{"geonameid":2413451,"edgar":"I6","itu":"GMB","marc":"gm","wmo":"GB","ds":"WAG","fifa":"GAM","fips":"GA","gaul":90,"ioc":"GAM","cowc":"GAM","cown":420,"fao":75,"imf":648,"ar5":"MAF","address_format":null,"eu_member":"null","states":null}},{"iso_3166_1_alpha3":"GNB","extra":{"geonameid":2372248,"edgar":"S0","itu":"GNB","marc":"pg","wmo":"GW","ds":"0","fifa":"GNB","fips":"PU","gaul":105,"ioc":"GBS","cowc":"GNB","cown":404,"fao":175,"imf":654,"ar5":"MAF","address_format":null,"eu_member":"null","states":null}},{"iso_3166_1_alpha3":"GNQ","extra":{"geonameid":2309096,"edgar":"H4","itu":"GNE","marc":"eg","wmo":"GQ","ds":"0","fifa":"EQG","fips":"EK","gaul":76,"ioc":"GEQ","cowc":"EQG","cown":411,"fao":61,"imf":642,"ar5":"MAF","address_format":null,"eu_member":"null","states":null}},{"iso_3166_1_alpha3":"GRC","extra":{"geonameid":390903,"edgar":"J3","itu":"GRC","marc":"gr","wmo":"GR","ds":"GR","fifa":"GRE","fips":"GR","gaul":97,"ioc":"GRE","cowc":"GRC","cown":350,"fao":84,"imf":174,"ar5":"OECD1990","address_format":"{{recipient}}\n{{street}}\n{{postalcode}} {{city}}\n{{country}}","eu_member":"true","states":null}},{"iso_3166_1_alpha3":"GRD","extra":{"geonameid":3580239,"edgar":"J5","itu":"GRD","marc":"gd","wmo":"GD","ds":"WG","fifa":"GRN","fips":"GJ","gaul":99,"ioc":"GRN","cowc":"GRN","cown":55,"fao":86,"imf":328,"ar5":"LAM","address_format":null,"eu_member":"null","states":null}},{"iso_3166_1_alpha3":"GRL","extra":{"geonameid":3425505,"edgar":"J4","itu":"GRL","marc":"gl","wmo":"GL","ds":"DK","fifa":"GRL","fips":"GL","gaul":98,"ioc":"GRL","cowc":"0","cown":0,"fao":0,"imf":326,"ar5":"OECD1990","address_format":"{{recipient}}\n{{street}}\n{{postalcode}} {{city}}\n{{country}}","eu_member":"null","states":null}},{"iso_3166_1_alpha3":"GTM","extra":{"geonameid":3595528,"edgar":"J8","itu":"GTM","marc":"gt","wmo":"GU","ds":"GCA","fifa":"GUA","fips":"GT","gaul":103,"ioc":"GUA","cowc":"GUA","cown":90,"fao":89,"imf":258,"ar5":"LAM","address_format":null,"eu_member":"null","states":null}},{"iso_3166_1_alpha3":"GUF","extra":{"geonameid":3381670,"edgar":"I3","itu":"GUF","marc":"fg","wmo":"FG","ds":"F","fifa":"GUF","fips":"FG","gaul":86,"ioc":"FGU","cowc":"0","cown":0,"fao":0,"imf":333,"ar5":"LAM","address_format":null,"eu_member":"null","states":null}},{"iso_3166_1_alpha3":"GUM","extra":{"geonameid":4043988,"edgar":"GU","itu":"GUM","marc":"gu","wmo":"GM","ds":"USA","fifa":"GUM","fips":"GQ","gaul":101,"ioc":"GUM","cowc":"0","cown":0,"fao":0,"imf":829,"ar5":"OECD1990","address_format":null,"eu_member":"null","states":null}},{"iso_3166_1_alpha3":"GUY","extra":{"geonameid":3378535,"edgar":"K0","itu":"GUY","marc":"gy","wmo":"GY","ds":"GUY","fifa":"GUY","fips":"GY","gaul":107,"ioc":"GUY","cowc":"GUY","cown":110,"fao":91,"imf":336,"ar5":"MAF","address_format":null,"eu_member":"null","states":null}},{"iso_3166_1_alpha3":"HKG","extra":{"geonameid":1819730,"edgar":"0","itu":"HKG","marc":"0","wmo":"HK","ds":"HK","fifa":"HKG","fips":"HK","gaul":33364,"ioc":"HKG","cowc":"0","cown":0,"fao":0,"imf":532,"ar5":"0","address_format":"{{recipient}}\n{{street}}\n{{postalcode}} {{city}} {{region_short}}\n{{country}}","eu_member":"null","states":null}},{"iso_3166_1_alpha3":"HMD","extra":{"geonameid":1547314,"edgar":"0","itu":"0","marc":"hm","wmo":"0","ds":"AUS","fifa":"0","fips":"HM","gaul":109,"ioc":"0","cowc":"0","cown":0,"fao":0,"imf":0,"ar5":"ASIA","address_format":null,"eu_member":"null","states":null}},{"iso_3166_1_alpha3":"HND","extra":{"geonameid":3608932,"edgar":"K2","itu":"HND","marc":"ho","wmo":"HO","ds":"0","fifa":"HON","fips":"HO","gaul":111,"ioc":"HON","cowc":"HON","cown":91,"fao":95,"imf":268,"ar5":"LAM","address_format":null,"eu_member":"null","states":null}},{"iso_3166_1_alpha3":"HRV","extra":{"geonameid":3202326,"edgar":"1M","itu":"HRV","marc":"ci","wmo":"RH","ds":"HR","fifa":"CRO","fips":"HR","gaul":62,"ioc":"CRO","cowc":"CRO","cown":344,"fao":98,"imf":960,"ar5":"EIT","address_format":"{{recipient}}\n{{street}}\n{{postalcode}} {{city}}\n{{country}}","eu_member":"true","states":null}},{"iso_3166_1_alpha3":"HTI","extra":{"geonameid":3723988,"edgar":"K1","itu":"HTI","marc":"ht","wmo":"HA","ds":"RH","fifa":"HAI","fips":"HA","gaul":108,"ioc":"HAI","cowc":"HAI","cown":41,"fao":93,"imf":263,"ar5":"LAM","address_format":null,"eu_member":"null","states":null}},{"iso_3166_1_alpha3":"HUN","extra":{"geonameid":719819,"edgar":"K5","itu":"HNG","marc":"hu","wmo":"HU","ds":"H","fifa":"HUN","fips":"HU","gaul":113,"ioc":"HUN","cowc":"HUN","cown":310,"fao":97,"imf":944,"ar5":"EIT","address_format":"{{recipient}}\n{{city}}\n{{street}}\n{{postalcode}}\n{{country}}","eu_member":"true","states":null}},{"iso_3166_1_alpha3":"IDN","extra":{"geonameid":1643084,"edgar":"K8","itu":"INS","marc":"io","wmo":"ID","ds":"RI","fifa":"IDN","fips":"ID","gaul":116,"ioc":"INA","cowc":"INS","cown":850,"fao":101,"imf":536,"ar5":"ASIA","address_format":"{{recipient}}\n{{street}}\n{{city}}\n{{region}} {{postalcode}}\n{{country}}","eu_member":"null","states":null}},{"iso_3166_1_alpha3":"IMN","extra":{"geonameid":3042225,"edgar":"Y8","itu":"0","marc":"uik","wmo":"0","ds":"GBM","fifa":"GBM","fips":"IM","gaul":120,"ioc":"0","cowc":"0","cown":0,"fao":0,"imf":0,"ar5":"OECD1990","address_format":null,"eu_member":"null","states":null}},{"iso_3166_1_alpha3":"IND","extra":{"geonameid":1269750,"edgar":"K7","itu":"IND","marc":"ii","wmo":"IN","ds":"IND","fifa":"IND","fips":"IN","gaul":115,"ioc":"IND","cowc":"IND","cown":750,"fao":100,"imf":534,"ar5":"ASIA","address_format":"{{recipient}}\n{{street}}\n{{region}}\n{{city}} {{postalcode}}\n{{country}}","eu_member":"null","states":null}},{"iso_3166_1_alpha3":"IOT","extra":{"geonameid":1282588,"edgar":"0","itu":"BIO","marc":"bi","wmo":"0","ds":"0","fifa":"0","fips":"IO","gaul":38,"ioc":"0","cowc":"0","cown":0,"fao":0,"imf":0,"ar5":"ASIA","address_format":null,"eu_member":"null","states":null}},{"iso_3166_1_alpha3":"IRL","extra":{"geonameid":2963597,"edgar":"L2","itu":"IRL","marc":"ie","wmo":"IE","ds":"IRL","fifa":"IRL","fips":"EI","gaul":119,"ioc":"IRL","cowc":"IRE","cown":205,"fao":104,"imf":178,"ar5":"OECD1990","address_format":"{{recipient}}\n{{street}}\n{{city}} {{region_short}} {{postalcode}}\n{{country}}","eu_member":"true","states":null}},{"iso_3166_1_alpha3":"IRN","extra":{"geonameid":130758,"edgar":"0","itu":"IRN","marc":"ir","wmo":"IR","ds":"IR","fifa":"IRN","fips":"IR","gaul":117,"ioc":"IRI","cowc":"IRN","cown":630,"fao":102,"imf":429,"ar5":"MAF","address_format":null,"eu_member":"null","states":null}},{"iso_3166_1_alpha3":"IRQ","extra":{"geonameid":99237,"edgar":"L0","itu":"IRQ","marc":"iq","wmo":"IQ","ds":"IRQ","fifa":"IRQ","fips":"IZ","gaul":118,"ioc":"IRQ","cowc":"IRQ","cown":645,"fao":103,"imf":433,"ar5":"MAF","address_format":null,"eu_member":"null","states":null}},{"iso_3166_1_alpha3":"ISL","extra":{"geonameid":2629691,"edgar":"K6","itu":"ISL","marc":"ic","wmo":"IL","ds":"IS","fifa":"ISL","fips":"IC","gaul":114,"ioc":"ISL","cowc":"ICE","cown":395,"fao":99,"imf":176,"ar5":"OECD1990","address_format":"{{recipient}}\n{{street}}\n{{postalcode}} {{city}}\n{{country}}","eu_member":"null","states":null}},{"iso_3166_1_alpha3":"ISR","extra":{"geonameid":294640,"edgar":"L3","itu":"ISR","marc":"is","wmo":"IS","ds":"IL","fifa":"ISR","fips":"IS","gaul":121,"ioc":"ISR","cowc":"ISR","cown":666,"fao":105,"imf":436,"ar5":"MAF","address_format":"{{recipient}}\n{{street}}\n{{postalcode}} {{city}}\n{{country}}","eu_member":"null","states":null}},{"iso_3166_1_alpha3":"ITA","extra":{"geonameid":3175395,"edgar":"L6","itu":"I","marc":"it","wmo":"IY","ds":"I","fifa":"ITA","fips":"IT","gaul":122,"ioc":"ITA","cowc":"ITA","cown":325,"fao":106,"imf":136,"ar5":"OECD1990","address_format":"{{recipient}}\n{{street}}\n{{postalcode}} {{city}} {{region_short}}\n{{country}}","eu_member":"true","states":null}},{"iso_3166_1_alpha3":"JAM","extra":{"geonameid":3489940,"edgar":"L8","itu":"JMC","marc":"jm","wmo":"JM","ds":"JA","fifa":"JAM","fips":"JM","gaul":123,"ioc":"JAM","cowc":"JAM","cown":51,"fao":109,"imf":343,"ar5":"LAM","address_format":null,"eu_member":"null","states":null}},{"iso_3166_1_alpha3":"JEY","extra":{"geonameid":3042142,"edgar":"Y9","itu":"0","marc":"uik","wmo":"0","ds":"GBJ","fifa":"GBJ","fips":"JE","gaul":128,"ioc":"0","cowc":"0","cown":0,"fao":0,"imf":0,"ar5":"OECD1990","address_format":null,"eu_member":"null","states":null}},{"iso_3166_1_alpha3":"JOR","extra":{"geonameid":248816,"edgar":"M2","itu":"JOR","marc":"jo","wmo":"JD","ds":"HKJ","fifa":"JOR","fips":"JO","gaul":130,"ioc":"JOR","cowc":"JOR","cown":663,"fao":112,"imf":439,"ar5":"MAF","address_format":"{{recipient}}\n{{street}}\n{{postalcode}} {{city}}\n{{country}}","eu_member":"null","states":null}},{"iso_3166_1_alpha3":"JPN","extra":{"geonameid":1861060,"edgar":"M0","itu":"J","marc":"ja","wmo":"JP","ds":"J","fifa":"JPN","fips":"JA","gaul":126,"ioc":"JPN","cowc":"JPN","cown":740,"fao":110,"imf":158,"ar5":"OECD1990","address_format":"〒{{postalcode}}\n{{region_short}}{{city}}{{street}}\n{{recipient}}\n{{country}}","eu_member":"null","states":null}},{"iso_3166_1_alpha3":"KAZ","extra":{"geonameid":1522867,"edgar":"0","itu":"KAZ","marc":"kz","wmo":"KZ","ds":"KZ","fifa":"KAZ","fips":"KZ","gaul":132,"ioc":"KAZ","cowc":"KZK","cown":705,"fao":108,"imf":916,"ar5":"EIT","address_format":null,"eu_member":"null","states":null}},{"iso_3166_1_alpha3":"KEN","extra":{"geonameid":192950,"edgar":"M3","itu":"KEN","marc":"ke","wmo":"KN","ds":"EAK","fifa":"KEN","fips":"KE","gaul":133,"ioc":"KEN","cowc":"KEN","cown":501,"fao":114,"imf":664,"ar5":"MAF","address_format":null,"eu_member":"null","states":null}},{"iso_3166_1_alpha3":"KGZ","extra":{"geonameid":1527747,"edgar":"1N","itu":"KGZ","marc":"kg","wmo":"KG","ds":"KS","fifa":"KGZ","fips":"KG","gaul":138,"ioc":"KGZ","cowc":"KYR","cown":703,"fao":113,"imf":917,"ar5":"EIT","address_format":null,"eu_member":"null","states":null}},{"iso_3166_1_alpha3":"KHM","extra":{"geonameid":1831722,"edgar":"E3","itu":"CBG","marc":"cb","wmo":"KP","ds":"K","fifa":"CAM","fips":"CB","gaul":44,"ioc":"CAM","cowc":"CAM","cown":811,"fao":115,"imf":522,"ar5":"ASIA","address_format":null,"eu_member":"null","states":null}},{"iso_3166_1_alpha3":"KIR","extra":{"geonameid":4030945,"edgar":"J2","itu":"KIR","marc":"gb","wmo":"KB","ds":"0","fifa":"KIR","fips":"KR","gaul":135,"ioc":"KIR","cowc":"KIR","cown":946,"fao":83,"imf":826,"ar5":"ASIA","address_format":null,"eu_member":"null","states":null}},{"iso_3166_1_alpha3":"KNA","extra":{"geonameid":3575174,"edgar":"U7","itu":"KNA","marc":"xd","wmo":"AT","ds":"0","fifa":"SKN","fips":"SC","gaul":208,"ioc":"SKN","cowc":"SKN","cown":60,"fao":188,"imf":361,"ar5":"LAM","address_format":null,"eu_member":"null","states":null}},{"iso_3166_1_alpha3":"KOR","extra":{"geonameid":1835841,"edgar":"0","itu":"KOR","marc":"ko","wmo":"KO","ds":"ROK","fifa":"KOR","fips":"KS","gaul":202,"ioc":"KOR","cowc":"ROK","cown":732,"fao":117,"imf":542,"ar5":"0","address_format":"{{recipient}}\n{{street}}\n{{city}} {{region_short}}\n{{postalcode}}\n{{country}}","eu_member":"null","states":null}},{"iso_3166_1_alpha3":"UNK","extra":{"geonameid":null,"edgar":"null","itu":"null","marc":"null","wmo":"null","ds":"null","fifa":"null","fips":"null","gaul":null,"ioc":"KOS","cowc":"null","cown":null,"fao":null,"imf":null,"ar5":"null","address_format":null,"eu_member":"null","states":null}},{"iso_3166_1_alpha3":"KWT","extra":{"geonameid":285570,"edgar":"M6","itu":"KWT","marc":"ku","wmo":"KW","ds":"KWT","fifa":"KUW","fips":"KU","gaul":137,"ioc":"KUW","cowc":"KUW","cown":690,"fao":118,"imf":443,"ar5":"MAF","address_format":"{{recipient}}\n{{street}}\n{{postalcode}} {{city}}\n{{region}}\n{{country}}","eu_member":"null","states":null}},{"iso_3166_1_alpha3":"LAO","extra":{"geonameid":1655842,"edgar":"0","itu":"LAO","marc":"ls","wmo":"LA","ds":"LAO","fifa":"LAO","fips":"LA","gaul":139,"ioc":"LAO","cowc":"LAO","cown":812,"fao":120,"imf":544,"ar5":"ASIA","address_format":null,"eu_member":"null","states":null}},{"iso_3166_1_alpha3":"LBN","extra":{"geonameid":272103,"edgar":"M8","itu":"LBN","marc":"le","wmo":"LB","ds":"RL","fifa":"LIB","fips":"LE","gaul":141,"ioc":"LIB","cowc":"LEB","cown":660,"fao":121,"imf":446,"ar5":"MAF","address_format":"{{recipient}}\n{{street}}\n{{postalcode}} {{city}}\n{{country}}","eu_member":"null","states":null}},{"iso_3166_1_alpha3":"LBR","extra":{"geonameid":2275384,"edgar":"N0","itu":"LBR","marc":"lb","wmo":"LI","ds":"LB","fifa":"LBR","fips":"LI","gaul":144,"ioc":"LBR","cowc":"LBR","cown":450,"fao":123,"imf":668,"ar5":"MAF","address_format":null,"eu_member":"null","states":null}},{"iso_3166_1_alpha3":"LBY","extra":{"geonameid":2215636,"edgar":"0","itu":"LBY","marc":"ly","wmo":"LY","ds":"LAR","fifa":"LBY","fips":"LY","gaul":145,"ioc":"LBA","cowc":"LIB","cown":620,"fao":124,"imf":672,"ar5":"MAF","address_format":null,"eu_member":"null","states":null}},{"iso_3166_1_alpha3":"LCA","extra":{"geonameid":3576468,"edgar":"U9","itu":"LCA","marc":"xk","wmo":"LC","ds":"WL","fifa":"LCA","fips":"ST","gaul":209,"ioc":"LCA","cowc":"SLU","cown":56,"fao":189,"imf":362,"ar5":"LAM","address_format":null,"eu_member":"null","states":null}},{"iso_3166_1_alpha3":"LIE","extra":{"geonameid":3042058,"edgar":"N2","itu":"LIE","marc":"lh","wmo":"0","ds":"FL","fifa":"LIE","fips":"LS","gaul":146,"ioc":"LIE","cowc":"LIE","cown":223,"fao":0,"imf":0,"ar5":"OECD1990","address_format":null,"eu_member":"null","states":null}},{"iso_3166_1_alpha3":"LKA","extra":{"geonameid":1227603,"edgar":"F1","itu":"CLN","marc":"ce","wmo":"SB","ds":"CL","fifa":"SRI","fips":"CE","gaul":231,"ioc":"SRI","cowc":"SRI","cown":780,"fao":38,"imf":524,"ar5":"ASIA","address_format":null,"eu_member":"null","states":null}},{"iso_3166_1_alpha3":"LSO","extra":{"geonameid":932692,"edgar":"M9","itu":"LSO","marc":"lo","wmo":"LS","ds":"LS","fifa":"LES","fips":"LT","gaul":142,"ioc":"LES","cowc":"LES","cown":570,"fao":122,"imf":666,"ar5":"MAF","address_format":null,"eu_member":"null","states":null}},{"iso_3166_1_alpha3":"LTU","extra":{"geonameid":597427,"edgar":"1Q","itu":"LTU","marc":"li","wmo":"LT","ds":"LT","fifa":"LTU","fips":"LH","gaul":147,"ioc":"LTU","cowc":"LIT","cown":368,"fao":126,"imf":946,"ar5":"EIT","address_format":null,"eu_member":"true","states":null}},{"iso_3166_1_alpha3":"LUX","extra":{"geonameid":2960313,"edgar":"N4","itu":"LUX","marc":"lu","wmo":"BX","ds":"L","fifa":"LUX","fips":"LU","gaul":148,"ioc":"LUX","cowc":"LUX","cown":212,"fao":256,"imf":137,"ar5":"OECD1990","address_format":"{{recipient}}\n{{street}}\n{{postalcode}} {{city}}\n{{country}}","eu_member":"true","states":null}},{"iso_3166_1_alpha3":"LVA","extra":{"geonameid":458258,"edgar":"1R","itu":"LVA","marc":"lv","wmo":"LV","ds":"LV","fifa":"LVA","fips":"LG","gaul":140,"ioc":"LAT","cowc":"LAT","cown":367,"fao":119,"imf":941,"ar5":"EIT","address_format":null,"eu_member":"true","states":null}},{"iso_3166_1_alpha3":"MAC","extra":{"geonameid":1821275,"edgar":"0","itu":"MAC","marc":"0","wmo":"MU","ds":"0","fifa":"MAC","fips":"MC","gaul":149,"ioc":"MAC","cowc":"0","cown":0,"fao":0,"imf":546,"ar5":"0","address_format":null,"eu_member":"null","states":null}},{"iso_3166_1_alpha3":"MAF","extra":{"geonameid":3578421,"edgar":"0","itu":"0","marc":"st","wmo":"0","ds":"0","fifa":"0","fips":"RN","gaul":0,"ioc":"0","cowc":"0","cown":0,"fao":0,"imf":352,"ar5":"0","address_format":null,"eu_member":"null","states":null}},{"iso_3166_1_alpha3":"MAR","extra":{"geonameid":2542007,"edgar":"P2","itu":"MRC","marc":"mr","wmo":"MC","ds":"MA","fifa":"MAR","fips":"MO","gaul":169,"ioc":"MAR","cowc":"MOR","cown":600,"fao":143,"imf":686,"ar5":"MAF","address_format":null,"eu_member":"null","states":null}},{"iso_3166_1_alpha3":"MCO","extra":{"geonameid":2993457,"edgar":"O9","itu":"MCO","marc":"mc","wmo":"0","ds":"MC","fifa":"MON","fips":"MN","gaul":166,"ioc":"MON","cowc":"MNC","cown":221,"fao":140,"imf":0,"ar5":"OECD1990","address_format":null,"eu_member":"null","states":null}},{"iso_3166_1_alpha3":"MDA","extra":{"geonameid":617790,"edgar":"0","itu":"MDA","marc":"mv","wmo":"RM","ds":"MD","fifa":"MDA","fips":"MD","gaul":165,"ioc":"MDA","cowc":"MLD","cown":359,"fao":146,"imf":921,"ar5":"EIT","address_format":null,"eu_member":"null","states":null}},{"iso_3166_1_alpha3":"MDG","extra":{"geonameid":1062947,"edgar":"N6","itu":"MDG","marc":"mg","wmo":"MG","ds":"RM","fifa":"MAD","fips":"MA","gaul":150,"ioc":"MAD","cowc":"MAG","cown":580,"fao":129,"imf":674,"ar5":"MAF","address_format":null,"eu_member":"null","states":null}},{"iso_3166_1_alpha3":"MDV","extra":{"geonameid":1282028,"edgar":"N9","itu":"MLD","marc":"xc","wmo":"MV","ds":"0","fifa":"MDV","fips":"MV","gaul":154,"ioc":"MDV","cowc":"MAD","cown":781,"fao":132,"imf":556,"ar5":"ASIA","address_format":null,"eu_member":"null","states":null}},{"iso_3166_1_alpha3":"MEX","extra":{"geonameid":3996063,"edgar":"O5","itu":"MEX","marc":"mx","wmo":"MX","ds":"MEX","fifa":"MEX","fips":"MX","gaul":162,"ioc":"MEX","cowc":"MEX","cown":70,"fao":138,"imf":273,"ar5":"LAM","address_format":"{{recipient}}\n{{street}}\n{{postalcode}} {{city}} {{region_short}}\n{{country}}","eu_member":"null","states":null}},{"iso_3166_1_alpha3":"MHL","extra":{"geonameid":2080185,"edgar":"1T","itu":"MHL","marc":"xe","wmo":"MH","ds":"0","fifa":"MHL","fips":"RM","gaul":157,"ioc":"MHL","cowc":"MSI","cown":983,"fao":127,"imf":867,"ar5":"ASIA","address_format":null,"eu_member":"null","states":null}},{"iso_3166_1_alpha3":"MKD","extra":{"geonameid":718075,"edgar":"0","itu":"MKD","marc":"xn","wmo":"MJ","ds":"MK","fifa":"MKD","fips":"MK","gaul":241,"ioc":"MKD","cowc":"MAC","cown":343,"fao":154,"imf":962,"ar5":"EIT","address_format":"{{recipient}}\n{{street}}\n{{city}} {{postalcode}}\n{{country}}","eu_member":"null","states":null}},{"iso_3166_1_alpha3":"MLI","extra":{"geonameid":2453866,"edgar":"O0","itu":"MLI","marc":"ml","wmo":"MI","ds":"RMM","fifa":"MLI","fips":"ML","gaul":155,"ioc":"MLI","cowc":"MLI","cown":432,"fao":133,"imf":678,"ar5":"MAF","address_format":null,"eu_member":"null","states":null}},{"iso_3166_1_alpha3":"MLT","extra":{"geonameid":2562770,"edgar":"O1","itu":"MLT","marc":"mm","wmo":"ML","ds":"M","fifa":"MLT","fips":"MT","gaul":156,"ioc":"MLT","cowc":"MLT","cown":338,"fao":134,"imf":181,"ar5":"EIT","address_format":null,"eu_member":"true","states":null}},{"iso_3166_1_alpha3":"MMR","extra":{"geonameid":1327865,"edgar":"E1","itu":"MYA","marc":"br","wmo":"BM","ds":"BUR","fifa":"MYA","fips":"BM","gaul":171,"ioc":"MYA","cowc":"MYA","cown":775,"fao":28,"imf":518,"ar5":"ASIA","address_format":null,"eu_member":"null","states":null}},{"iso_3166_1_alpha3":"MNE","extra":{"geonameid":3194884,"edgar":"Z5","itu":"MNE","marc":"mo","wmo":"0","ds":"MNE","fifa":"MNE","fips":"MJ","gaul":2647,"ioc":"MNE","cowc":"MNG","cown":341,"fao":273,"imf":943,"ar5":"EIT","address_format":null,"eu_member":"null","states":null}},{"iso_3166_1_alpha3":"MNG","extra":{"geonameid":2029969,"edgar":"P0","itu":"MNG","marc":"mp","wmo":"MO","ds":"MGL","fifa":"MNG","fips":"MG","gaul":167,"ioc":"MGL","cowc":"MON","cown":712,"fao":141,"imf":948,"ar5":"ASIA","address_format":null,"eu_member":"null","states":null}},{"iso_3166_1_alpha3":"MNP","extra":{"geonameid":4041468,"edgar":"1V","itu":"MRA","marc":"nw","wmo":"MY","ds":"USA","fifa":"NMI","fips":"CQ","gaul":185,"ioc":"NMA","cowc":"0","cown":0,"fao":0,"imf":0,"ar5":"ASIA","address_format":null,"eu_member":"null","states":null}},{"iso_3166_1_alpha3":"MOZ","extra":{"geonameid":1036973,"edgar":"P3","itu":"MOZ","marc":"mz","wmo":"MZ","ds":"MOC","fifa":"MOZ","fips":"MZ","gaul":170,"ioc":"MOZ","cowc":"MZM","cown":541,"fao":144,"imf":688,"ar5":"MAF","address_format":null,"eu_member":"null","states":null}},{"iso_3166_1_alpha3":"MRT","extra":{"geonameid":2378080,"edgar":"O3","itu":"MTN","marc":"mu","wmo":"MT","ds":"RIM","fifa":"MTN","fips":"MR","gaul":159,"ioc":"MTN","cowc":"MAA","cown":435,"fao":136,"imf":682,"ar5":"MAF","address_format":null,"eu_member":"null","states":null}},{"iso_3166_1_alpha3":"MSR","extra":{"geonameid":3578097,"edgar":"P1","itu":"MSR","marc":"mj","wmo":"0","ds":"0","fifa":"MSR","fips":"MH","gaul":168,"ioc":"MNT","cowc":"0","cown":0,"fao":0,"imf":351,"ar5":"LAM","address_format":null,"eu_member":"null","states":null}},{"iso_3166_1_alpha3":"MTQ","extra":{"geonameid":3570311,"edgar":"O2","itu":"MRT","marc":"mq","wmo":"MR","ds":"F","fifa":"MTQ","fips":"MB","gaul":158,"ioc":"MRT","cowc":"0","cown":0,"fao":0,"imf":349,"ar5":"LAM","address_format":null,"eu_member":"null","states":null}},{"iso_3166_1_alpha3":"MUS","extra":{"geonameid":934292,"edgar":"O4","itu":"MAU","marc":"mf","wmo":"MA","ds":"MS","fifa":"MRI","fips":"MP","gaul":160,"ioc":"MRI","cowc":"MAS","cown":590,"fao":137,"imf":684,"ar5":"MAF","address_format":null,"eu_member":"null","states":null}},{"iso_3166_1_alpha3":"MWI","extra":{"geonameid":927384,"edgar":"N7","itu":"MWI","marc":"mw","wmo":"MW","ds":"MW","fifa":"MWI","fips":"MI","gaul":152,"ioc":"MAW","cowc":"MAW","cown":553,"fao":130,"imf":676,"ar5":"MAF","address_format":null,"eu_member":"null","states":null}},{"iso_3166_1_alpha3":"MYS","extra":{"geonameid":1733045,"edgar":"N8","itu":"MLA","marc":"my","wmo":"MS","ds":"MAL","fifa":"MAS","fips":"MY","gaul":153,"ioc":"MAS","cowc":"MAL","cown":820,"fao":131,"imf":548,"ar5":"MAF","address_format":null,"eu_member":"null","states":null}},{"iso_3166_1_alpha3":"MYT","extra":{"geonameid":1024031,"edgar":"2P","itu":"MYT","marc":"ot","wmo":"0","ds":"0","fifa":"MYT","fips":"MF","gaul":161,"ioc":"MAY","cowc":"0","cown":0,"fao":0,"imf":0,"ar5":"MAF","address_format":null,"eu_member":"null","states":null}},{"iso_3166_1_alpha3":"NAM","extra":{"geonameid":3355338,"edgar":"T6","itu":"NMB","marc":"sx","wmo":"NM","ds":"NAM","fifa":"NAM","fips":"WA","gaul":172,"ioc":"NAM","cowc":"NAM","cown":565,"fao":147,"imf":728,"ar5":"MAF","address_format":null,"eu_member":"null","states":null}},{"iso_3166_1_alpha3":"NCL","extra":{"geonameid":2139685,"edgar":"1W","itu":"NCL","marc":"nl","wmo":"NC","ds":"F","fifa":"NCL","fips":"NC","gaul":178,"ioc":"NCD","cowc":"0","cown":0,"fao":0,"imf":839,"ar5":"ASIA","address_format":null,"eu_member":"null","states":null}},{"iso_3166_1_alpha3":"NER","extra":{"geonameid":2440476,"edgar":"Q4","itu":"NGR","marc":"ng","wmo":"NR","ds":"RN","fifa":"NIG","fips":"NG","gaul":181,"ioc":"NIG","cowc":"NIR","cown":436,"fao":158,"imf":692,"ar5":"MAF","address_format":null,"eu_member":"null","states":null}},{"iso_3166_1_alpha3":"NFK","extra":{"geonameid":2155115,"edgar":"Q7","itu":"NFK","marc":"nx","wmo":"NF","ds":"AUS","fifa":"NFK","fips":"NF","gaul":184,"ioc":"NFI","cowc":"0","cown":0,"fao":0,"imf":0,"ar5":"ASIA","address_format":null,"eu_member":"null","states":null}},{"iso_3166_1_alpha3":"NGA","extra":{"geonameid":2328926,"edgar":"Q5","itu":"NIG","marc":"nr","wmo":"NI","ds":"NGR","fifa":"NGA","fips":"NI","gaul":182,"ioc":"NGR","cowc":"NIG","cown":475,"fao":159,"imf":694,"ar5":"MAF","address_format":null,"eu_member":"null","states":null}},{"iso_3166_1_alpha3":"NIC","extra":{"geonameid":3617476,"edgar":"Q3","itu":"NCG","marc":"nq","wmo":"NK","ds":"NIC","fifa":"NCA","fips":"NU","gaul":180,"ioc":"NCA","cowc":"NIC","cown":93,"fao":157,"imf":278,"ar5":"LAM","address_format":null,"eu_member":"null","states":null}},{"iso_3166_1_alpha3":"NIU","extra":{"geonameid":4036232,"edgar":"Q6","itu":"NIU","marc":"xh","wmo":"0","ds":"NZ","fifa":"NIU","fips":"NE","gaul":183,"ioc":"NIU","cowc":"0","cown":0,"fao":160,"imf":0,"ar5":"ASIA","address_format":null,"eu_member":"null","states":null}},{"iso_3166_1_alpha3":"NLD","extra":{"geonameid":2750405,"edgar":"P7","itu":"HOL","marc":"ne","wmo":"NL","ds":"NL","fifa":"NED","fips":"NL","gaul":177,"ioc":"NED","cowc":"NTH","cown":210,"fao":150,"imf":138,"ar5":"OECD1990","address_format":"{{recipient}}\n{{street}}\n{{postalcode}} {{city}}\n{{country}}","eu_member":"true","states":null}},{"iso_3166_1_alpha3":"NOR","extra":{"geonameid":3144096,"edgar":"Q8","itu":"NOR","marc":"no","wmo":"NO","ds":"N","fifa":"NOR","fips":"NO","gaul":186,"ioc":"NOR","cowc":"NOR","cown":385,"fao":162,"imf":142,"ar5":"MAF","address_format":"{{recipient}}\n{{street}}\n{{postalcode}} {{city}}\n{{country}}","eu_member":"null","states":null}},{"iso_3166_1_alpha3":"NPL","extra":{"geonameid":1282988,"edgar":"P6","itu":"NPL","marc":"np","wmo":"NP","ds":"NEP","fifa":"NEP","fips":"NP","gaul":175,"ioc":"NEP","cowc":"NEP","cown":790,"fao":149,"imf":558,"ar5":"ASIA","address_format":null,"eu_member":"null","states":null}},{"iso_3166_1_alpha3":"NRU","extra":{"geonameid":2110425,"edgar":"P5","itu":"NRU","marc":"nu","wmo":"NW","ds":"NAU","fifa":"NRU","fips":"NR","gaul":173,"ioc":"NRU","cowc":"NAU","cown":970,"fao":148,"imf":836,"ar5":"ASIA","address_format":null,"eu_member":"null","states":null}},{"iso_3166_1_alpha3":"NZL","extra":{"geonameid":2186224,"edgar":"Q2","itu":"NZL","marc":"nz","wmo":"NZ","ds":"NZ","fifa":"NZL","fips":"NZ","gaul":179,"ioc":"NZL","cowc":"NEW","cown":920,"fao":156,"imf":196,"ar5":"OECD1990","address_format":"{{recipient}}\n{{street}}\n{{region}}\n{{city}} {{postalcode}}\n{{country}}","eu_member":"null","states":null}},{"iso_3166_1_alpha3":"OMN","extra":{"geonameid":286963,"edgar":"P4","itu":"OMA","marc":"mk","wmo":"OM","ds":"0","fifa":"OMA","fips":"MU","gaul":187,"ioc":"OMA","cowc":"OMA","cown":698,"fao":221,"imf":449,"ar5":"0","address_format":"{{recipient}}\n{{street}}\n{{postalcode}} {{city}}\n{{region}}\n{{country}}","eu_member":"null","states":null}},{"iso_3166_1_alpha3":"PAK","extra":{"geonameid":1168579,"edgar":"R0","itu":"PAK","marc":"pk","wmo":"PK","ds":"PK","fifa":"PAK","fips":"PK","gaul":188,"ioc":"PAK","cowc":"PAK","cown":770,"fao":165,"imf":564,"ar5":"ASIA","address_format":null,"eu_member":"null","states":null}},{"iso_3166_1_alpha3":"PAN","extra":{"geonameid":3703430,"edgar":"R1","itu":"PNR","marc":"pn","wmo":"PM","ds":"PA","fifa":"PAN","fips":"PM","gaul":191,"ioc":"PAN","cowc":"PAN","cown":95,"fao":166,"imf":283,"ar5":"LAM","address_format":null,"eu_member":"null","states":null}},{"iso_3166_1_alpha3":"PCN","extra":{"geonameid":4030699,"edgar":"R8","itu":"PTC","marc":"pc","wmo":"PT","ds":"0","fifa":"PCN","fips":"PC","gaul":197,"ioc":"0","cowc":"0","cown":0,"fao":0,"imf":0,"ar5":"ASIA","address_format":null,"eu_member":"null","states":null}},{"iso_3166_1_alpha3":"FAS","extra":{"geonameid":3932488,"edgar":"R5","itu":"PRU","marc":"pe","wmo":"PR","ds":"PE","fifa":"FAS","fips":"PE","gaul":195,"ioc":"FAS","cowc":"FAS","cown":135,"fao":170,"imf":293,"ar5":"LAM","address_format":null,"eu_member":"null","states":null}},{"iso_3166_1_alpha3":"PHL","extra":{"geonameid":1694008,"edgar":"R6","itu":"PHL","marc":"ph","wmo":"PH","ds":"RP","fifa":"PHI","fips":"RP","gaul":196,"ioc":"PHI","cowc":"PHI","cown":840,"fao":171,"imf":566,"ar5":"ASIA","address_format":"{{recipient}}\n{{street}} {{region_short}}\n{{postalcode}} {{city}}\n{{country}}","eu_member":"null","states":null}},{"iso_3166_1_alpha3":"PLW","extra":{"geonameid":1559582,"edgar":"1Y","itu":"PLW","marc":"pw","wmo":"0","ds":"0","fifa":"PLW","fips":"PS","gaul":189,"ioc":"PLW","cowc":"PAL","cown":986,"fao":180,"imf":565,"ar5":"ASIA","address_format":null,"eu_member":"null","states":null}},{"iso_3166_1_alpha3":"PNG","extra":{"geonameid":2088628,"edgar":"R2","itu":"PNG","marc":"pp","wmo":"NG","ds":"PNG","fifa":"PNG","fips":"PP","gaul":192,"ioc":"PNG","cowc":"PNG","cown":910,"fao":168,"imf":853,"ar5":"ASIA","address_format":null,"eu_member":"null","states":null}},{"iso_3166_1_alpha3":"POL","extra":{"geonameid":798544,"edgar":"R9","itu":"POL","marc":"pl","wmo":"PL","ds":"PL","fifa":"POL","fips":"PL","gaul":198,"ioc":"POL","cowc":"POL","cown":290,"fao":173,"imf":964,"ar5":"EIT","address_format":"{{recipient}}\n{{street}}\n{{postalcode}} {{city}}\n{{region}}\n{{country}}","eu_member":"true","states":null}},{"iso_3166_1_alpha3":"PRI","extra":{"geonameid":4566966,"edgar":"PR","itu":"PTR","marc":"pr","wmo":"PU","ds":"USA","fifa":"PUR","fips":"RQ","gaul":200,"ioc":"PUR","cowc":"0","cown":0,"fao":0,"imf":0,"ar5":"LAM","address_format":null,"eu_member":"null","states":null}},{"iso_3166_1_alpha3":"PRK","extra":{"geonameid":1873107,"edgar":"0","itu":"KRE","marc":"kn","wmo":"KR","ds":"0","fifa":"PRK","fips":"KN","gaul":67,"ioc":"PRK","cowc":"PRK","cown":731,"fao":116,"imf":0,"ar5":"ASIA","address_format":null,"eu_member":"null","states":null}},{"iso_3166_1_alpha3":"PRT","extra":{"geonameid":2264397,"edgar":"S1","itu":"POR","marc":"po","wmo":"PO","ds":"P","fifa":"POR","fips":"PO","gaul":199,"ioc":"POR","cowc":"POR","cown":235,"fao":174,"imf":182,"ar5":"OECD1990","address_format":"{{recipient}}\n{{street}}\n{{postalcode}} {{city}} {{region_short}}\n{{country}}","eu_member":"true","states":null}},{"iso_3166_1_alpha3":"PRY","extra":{"geonameid":3437598,"edgar":"R4","itu":"PRG","marc":"py","wmo":"PY","ds":"PY","fifa":"PAR","fips":"PA","gaul":194,"ioc":"PAR","cowc":"PAR","cown":150,"fao":169,"imf":288,"ar5":"LAM","address_format":null,"eu_member":"null","states":null}},{"iso_3166_1_alpha3":"PSE","extra":{"geonameid":6254930,"edgar":"0","itu":"0","marc":"gz,wj","wmo":"0","ds":"0","fifa":"PLE","fips":"GZ,WE","gaul":91267,"ioc":"PLE","cowc":"0","cown":0,"fao":0,"imf":487,"ar5":"MAF","address_format":null,"eu_member":"null","states":null}},{"iso_3166_1_alpha3":"PYF","extra":{"geonameid":4030656,"edgar":"I4","itu":"OCE","marc":"fp","wmo":"PF","ds":"F","fifa":"TAH","fips":"FP","gaul":87,"ioc":"FPO","cowc":"0","cown":0,"fao":0,"imf":887,"ar5":"ASIA","address_format":null,"eu_member":"null","states":null}},{"iso_3166_1_alpha3":"QAT","extra":{"geonameid":289688,"edgar":"S3","itu":"QAT","marc":"qa","wmo":"QT","ds":"Q","fifa":"QAT","fips":"QA","gaul":201,"ioc":"QAT","cowc":"QAT","cown":694,"fao":179,"imf":453,"ar5":"MAF","address_format":"{{recipient}}\n{{street}}\n{{postalcode}} {{city}}\n{{country}}","eu_member":"null","states":null}},{"iso_3166_1_alpha3":"REU","extra":{"geonameid":935317,"edgar":"0","itu":"REU","marc":"re","wmo":"RE","ds":"F","fifa":"REU","fips":"RE","gaul":206,"ioc":"REU","cowc":"0","cown":0,"fao":0,"imf":696,"ar5":"MAF","address_format":null,"eu_member":"null","states":null}},{"iso_3166_1_alpha3":"ROU","extra":{"geonameid":798549,"edgar":"S5","itu":"ROU","marc":"rm","wmo":"RO","ds":"RO","fifa":"ROU","fips":"RO","gaul":203,"ioc":"ROU","cowc":"ROM","cown":360,"fao":183,"imf":968,"ar5":"EIT","address_format":"{{recipient}}\n{{street}}\n{{postalcode}} {{city}}\n{{country}}","eu_member":"true","states":null}},{"iso_3166_1_alpha3":"RUS","extra":{"geonameid":2017370,"edgar":"1Z","itu":"RUS","marc":"ru","wmo":"RS","ds":"RUS","fifa":"RUS","fips":"RS","gaul":204,"ioc":"RUS","cowc":"RUS","cown":365,"fao":185,"imf":922,"ar5":"EIT","address_format":"{{recipient}}\n{{postalcode}} {{city}}\n{{street}}\n{{country}}","eu_member":"null","states":null}},{"iso_3166_1_alpha3":"RWA","extra":{"geonameid":49518,"edgar":"S6","itu":"RRW","marc":"rw","wmo":"RW","ds":"RWA","fifa":"RWA","fips":"RW","gaul":205,"ioc":"RWA","cowc":"RWA","cown":517,"fao":184,"imf":714,"ar5":"MAF","address_format":null,"eu_member":"null","states":null}},{"iso_3166_1_alpha3":"SAU","extra":{"geonameid":102358,"edgar":"T0","itu":"ARS","marc":"su","wmo":"SD","ds":"SA","fifa":"KSA","fips":"SA","gaul":215,"ioc":"KSA","cowc":"SAU","cown":670,"fao":194,"imf":456,"ar5":"MAF","address_format":"{{recipient}}\n{{street}}\n{{postalcode}} {{city}}\n{{country}}","eu_member":"null","states":null}},{"iso_3166_1_alpha3":"SDN","extra":{"geonameid":366755,"edgar":"V2","itu":"SDN","marc":"sj","wmo":"SU","ds":"SUD","fifa":"SUD","fips":"SU","gaul":40764,"ioc":"SUD","cowc":"SUD","cown":625,"fao":276,"imf":732,"ar5":"MAF","address_format":null,"eu_member":"null","states":null}},{"iso_3166_1_alpha3":"SEN","extra":{"geonameid":2245662,"edgar":"T1","itu":"SEN","marc":"sg","wmo":"SG","ds":"SN","fifa":"SEN","fips":"SG","gaul":217,"ioc":"SEN","cowc":"SEN","cown":433,"fao":195,"imf":722,"ar5":"MAF","address_format":null,"eu_member":"null","states":null}},{"iso_3166_1_alpha3":"SGP","extra":{"geonameid":1880251,"edgar":"U0","itu":"SNG","marc":"si","wmo":"SR","ds":"SGP","fifa":"SIN","fips":"SN","gaul":222,"ioc":"SIN","cowc":"SIN","cown":830,"fao":200,"imf":576,"ar5":"ASIA","address_format":"{{recipient}}\n{{street}}\n{{city}} {{postalcode}}\n{{country}}","eu_member":"null","states":null}},{"iso_3166_1_alpha3":"SGS","extra":{"geonameid":3474415,"edgar":"0","itu":"0","marc":"xs","wmo":"0","ds":"0","fifa":"0","fips":"SX","gaul":228,"ioc":"0","cowc":"0","cown":0,"fao":0,"imf":0,"ar5":"LAM","address_format":null,"eu_member":"null","states":null}},{"iso_3166_1_alpha3":"SJM","extra":{"geonameid":607072,"edgar":"0","itu":"NOR","marc":"0","wmo":"SZ","ds":"0","fifa":"0","fips":"SV,JN","gaul":234,"ioc":"0","cowc":"0","cown":0,"fao":0,"imf":0,"ar5":"OECD1990","address_format":null,"eu_member":"null","states":null}},{"iso_3166_1_alpha3":"SLB","extra":{"geonameid":2103350,"edgar":"D7","itu":"SLM","marc":"bp","wmo":"SO","ds":"0","fifa":"SOL","fips":"BP","gaul":225,"ioc":"SOL","cowc":"SOL","cown":940,"fao":25,"imf":813,"ar5":"ASIA","address_format":null,"eu_member":"null","states":null}},{"iso_3166_1_alpha3":"SLE","extra":{"geonameid":2403846,"edgar":"T8","itu":"SRL","marc":"sl","wmo":"SL","ds":"WAL","fifa":"SLE","fips":"SL","gaul":221,"ioc":"SLE","cowc":"SIE","cown":451,"fao":197,"imf":724,"ar5":"MAF","address_format":null,"eu_member":"null","states":null}},{"iso_3166_1_alpha3":"SLV","extra":{"geonameid":3585968,"edgar":"H3","itu":"SLV","marc":"es","wmo":"ES","ds":"ES","fifa":"SLV","fips":"ES","gaul":75,"ioc":"ESA","cowc":"SAL","cown":92,"fao":60,"imf":253,"ar5":"LAM","address_format":null,"eu_member":"null","states":null}},{"iso_3166_1_alpha3":"SMR","extra":{"geonameid":3168068,"edgar":"S8","itu":"SMR","marc":"sm","wmo":"0","ds":"RSM","fifa":"SMR","fips":"SM","gaul":213,"ioc":"SMR","cowc":"SNM","cown":331,"fao":192,"imf":135,"ar5":"OECD1990","address_format":null,"eu_member":"null","states":null}},{"iso_3166_1_alpha3":"SOM","extra":{"geonameid":51537,"edgar":"U1","itu":"SOM","marc":"so","wmo":"SI","ds":"SO","fifa":"SOM","fips":"SO","gaul":226,"ioc":"SOM","cowc":"SOM","cown":520,"fao":201,"imf":726,"ar5":"MAF","address_format":null,"eu_member":"null","states":null}},{"iso_3166_1_alpha3":"SPM","extra":{"geonameid":3424932,"edgar":"V0","itu":"SPM","marc":"xl","wmo":"FP","ds":"F","fifa":"SPM","fips":"SB","gaul":210,"ioc":"SPM","cowc":"0","cown":0,"fao":0,"imf":363,"ar5":"OECD1990","address_format":null,"eu_member":"null","states":null}},{"iso_3166_1_alpha3":"SRB","extra":{"geonameid":6290252,"edgar":"Z2","itu":"SRB","marc":"rb","wmo":"YG","ds":"SRB","fifa":"SRB","fips":"RI,KV","gaul":2648,"ioc":"SRB","cowc":"0","cown":0,"fao":272,"imf":942,"ar5":"EIT","address_format":null,"eu_member":"null","states":null}},{"iso_3166_1_alpha3":"SSD","extra":{"geonameid":7909807,"edgar":"0","itu":"SSD","marc":"sd","wmo":"0","ds":"0","fifa":"0","fips":"OD","gaul":0,"ioc":"0","cowc":"SSD","cown":626,"fao":277,"imf":733,"ar5":"MAF","address_format":null,"eu_member":"null","states":null}},{"iso_3166_1_alpha3":"STP","extra":{"geonameid":2410758,"edgar":"S9","itu":"STP","marc":"sf","wmo":"TP","ds":"0","fifa":"STP","fips":"TP","gaul":214,"ioc":"STP","cowc":"STP","cown":403,"fao":193,"imf":716,"ar5":"MAF","address_format":null,"eu_member":"null","states":null}},{"iso_3166_1_alpha3":"SUR","extra":{"geonameid":3382998,"edgar":"V3","itu":"SUR","marc":"sr","wmo":"SM","ds":"SME","fifa":"SUR","fips":"NS","gaul":233,"ioc":"SUR","cowc":"SUR","cown":115,"fao":207,"imf":366,"ar5":"LAM","address_format":null,"eu_member":"null","states":null}},{"iso_3166_1_alpha3":"SVK","extra":{"geonameid":3057568,"edgar":"2B","itu":"SVK","marc":"xo","wmo":"SQ","ds":"SK","fifa":"SVK","fips":"LO","gaul":223,"ioc":"SVK","cowc":"SLO","cown":317,"fao":199,"imf":936,"ar5":"EIT","address_format":"{{recipient}}\n{{street}}\n{{postalcode}} {{city}}\n{{country}}","eu_member":"true","states":null}},{"iso_3166_1_alpha3":"SVN","extra":{"geonameid":3190538,"edgar":"2A","itu":"SVN","marc":"xv","wmo":"LJ","ds":"SLO","fifa":"SVN","fips":"SI","gaul":224,"ioc":"SLO","cowc":"SLV","cown":349,"fao":198,"imf":961,"ar5":"EIT","address_format":"{{recipient}}\n{{street}}\n{{postalcode}} {{city}}\n{{country}}","eu_member":"true","states":null}},{"iso_3166_1_alpha3":"SWE","extra":{"geonameid":2661886,"edgar":"V7","itu":"S","marc":"sw","wmo":"SN","ds":"S","fifa":"SWE","fips":"SW","gaul":236,"ioc":"SWE","cowc":"SWD","cown":380,"fao":210,"imf":144,"ar5":"OECD1990","address_format":"{{recipient}}\n{{street}}\n{{postalcode}} {{city}}\n{{country}}","eu_member":"true","states":null}},{"iso_3166_1_alpha3":"SWZ","extra":{"geonameid":934841,"edgar":"V6","itu":"SWZ","marc":"sq","wmo":"SV","ds":"SD","fifa":"SWZ","fips":"WZ","gaul":235,"ioc":"SWZ","cowc":"SWA","cown":572,"fao":209,"imf":734,"ar5":"MAF","address_format":null,"eu_member":"null","states":null}},{"iso_3166_1_alpha3":"SXM","extra":{"geonameid":7609695,"edgar":"0","itu":"0","marc":"sn","wmo":"0","ds":"0","fifa":"0","fips":"NN","gaul":0,"ioc":"0","cowc":"0","cown":0,"fao":0,"imf":0,"ar5":"LAM","address_format":null,"eu_member":"null","states":null}},{"iso_3166_1_alpha3":"SYC","extra":{"geonameid":241170,"edgar":"T2","itu":"SEY","marc":"se","wmo":"SC","ds":"SY","fifa":"SEY","fips":"SE","gaul":220,"ioc":"SEY","cowc":"SEY","cown":591,"fao":196,"imf":718,"ar5":"MAF","address_format":null,"eu_member":"null","states":null}},{"iso_3166_1_alpha3":"SYR","extra":{"geonameid":163843,"edgar":"V9","itu":"SYR","marc":"sy","wmo":"SY","ds":"SYR","fifa":"SYR","fips":"SY","gaul":238,"ioc":"SYR","cowc":"SYR","cown":652,"fao":212,"imf":463,"ar5":"MAF","address_format":"{{recipient}}\n{{street}}\n{{postalcode}} {{city}}\n{{country}}","eu_member":"null","states":null}},{"iso_3166_1_alpha3":"TCA","extra":{"geonameid":3576916,"edgar":"W7","itu":"TCA","marc":"tc","wmo":"TI","ds":"0","fifa":"TCA","fips":"TK","gaul":251,"ioc":"TKS","cowc":"0","cown":0,"fao":0,"imf":0,"ar5":"LAM","address_format":null,"eu_member":"null","states":null}},{"iso_3166_1_alpha3":"TCD","extra":{"geonameid":2434508,"edgar":"F2","itu":"TCD","marc":"cd","wmo":"CD","ds":"TCH","fifa":"CHA","fips":"CD","gaul":50,"ioc":"CHA","cowc":"CHA","cown":483,"fao":39,"imf":628,"ar5":"MAF","address_format":null,"eu_member":"null","states":null}},{"iso_3166_1_alpha3":"TGO","extra":{"geonameid":2363686,"edgar":"W2","itu":"TGO","marc":"tg","wmo":"TG","ds":"TG","fifa":"TOG","fips":"TO","gaul":243,"ioc":"TOG","cowc":"TOG","cown":461,"fao":217,"imf":742,"ar5":"MAF","address_format":null,"eu_member":"null","states":null}},{"iso_3166_1_alpha3":"THA","extra":{"geonameid":1605651,"edgar":"W1","itu":"THA","marc":"th","wmo":"TH","ds":"T","fifa":"THA","fips":"TH","gaul":240,"ioc":"THA","cowc":"THI","cown":800,"fao":216,"imf":578,"ar5":"ASIA","address_format":null,"eu_member":"null","states":null}},{"iso_3166_1_alpha3":"TJK","extra":{"geonameid":1220409,"edgar":"2D","itu":"TJK","marc":"ta","wmo":"TA","ds":"TJ","fifa":"TJK","fips":"TI","gaul":239,"ioc":"TJK","cowc":"TAJ","cown":702,"fao":208,"imf":923,"ar5":"EIT","address_format":null,"eu_member":"null","states":null}},{"iso_3166_1_alpha3":"TKL","extra":{"geonameid":4031074,"edgar":"W3","itu":"TKL","marc":"tl","wmo":"TK","ds":"NZ","fifa":"TKL","fips":"TL","gaul":244,"ioc":"0","cowc":"0","cown":0,"fao":0,"imf":0,"ar5":"ASIA","address_format":null,"eu_member":"null","states":null}},{"iso_3166_1_alpha3":"TKM","extra":{"geonameid":1218197,"edgar":"2E","itu":"TKM","marc":"tk","wmo":"TR","ds":"TM","fifa":"TKM","fips":"TX","gaul":250,"ioc":"TKM","cowc":"TKM","cown":701,"fao":213,"imf":925,"ar5":"EIT","address_format":null,"eu_member":"null","states":null}},{"iso_3166_1_alpha3":"TLS","extra":{"geonameid":1966436,"edgar":"Z3","itu":"TLS","marc":"em","wmo":"TM","ds":"0","fifa":"TLS","fips":"TT","gaul":242,"ioc":"TLS","cowc":"ETM","cown":860,"fao":176,"imf":537,"ar5":"ASIA","address_format":null,"eu_member":"null","states":null}},{"iso_3166_1_alpha3":"TON","extra":{"geonameid":4032283,"edgar":"W4","itu":"TON","marc":"to","wmo":"TO","ds":"0","fifa":"TGA","fips":"TN","gaul":245,"ioc":"TGA","cowc":"TON","cown":955,"fao":219,"imf":866,"ar5":"MAF","address_format":null,"eu_member":"null","states":null}},{"iso_3166_1_alpha3":"TTO","extra":{"geonameid":3573591,"edgar":"W5","itu":"TRD","marc":"tr","wmo":"TD","ds":"TT","fifa":"TRI","fips":"TD","gaul":246,"ioc":"TTO","cowc":"TRI","cown":52,"fao":220,"imf":369,"ar5":"LAM","address_format":null,"eu_member":"null","states":null}},{"iso_3166_1_alpha3":"TUN","extra":{"geonameid":2464461,"edgar":"W6","itu":"TUN","marc":"ti","wmo":"TS","ds":"TN","fifa":"TUN","fips":"TS","gaul":248,"ioc":"TUN","cowc":"TUN","cown":616,"fao":222,"imf":744,"ar5":"MAF","address_format":null,"eu_member":"null","states":null}},{"iso_3166_1_alpha3":"TUR","extra":{"geonameid":298795,"edgar":"W8","itu":"TUR","marc":"tu","wmo":"TU","ds":"TR","fifa":"TUR","fips":"TU","gaul":249,"ioc":"TUR","cowc":"TUR","cown":640,"fao":223,"imf":186,"ar5":"OECD1990","address_format":"{{recipient}}\n{{street}}\n{{postalcode}} {{city}}\n{{country}}","eu_member":"null","states":null}},{"iso_3166_1_alpha3":"TUV","extra":{"geonameid":2110297,"edgar":"2G","itu":"TUV","marc":"tv","wmo":"TV","ds":"0","fifa":"TUV","fips":"TV","gaul":252,"ioc":"TUV","cowc":"TUV","cown":947,"fao":227,"imf":0,"ar5":"ASIA","address_format":null,"eu_member":"null","states":null}},{"iso_3166_1_alpha3":"TWN","extra":{"geonameid":1668284,"edgar":"0","itu":"0","marc":"ch","wmo":"0","ds":"RC","fifa":"TPE","fips":"TW","gaul":925,"ioc":"TPE","cowc":"TAW","cown":713,"fao":0,"imf":528,"ar5":"ASIA","address_format":"{{recipient}}\n{{street}}\n{{city}} {{region_short}} {{postalcode}}\n{{country}}","eu_member":"null","states":null}},{"iso_3166_1_alpha3":"TZA","extra":{"geonameid":149590,"edgar":"0","itu":"TZA","marc":"tz","wmo":"TN","ds":"EAT","fifa":"TAN","fips":"TZ","gaul":257,"ioc":"TAN","cowc":"TAZ","cown":510,"fao":215,"imf":738,"ar5":"MAF","address_format":null,"eu_member":"null","states":null}},{"iso_3166_1_alpha3":"UGA","extra":{"geonameid":226074,"edgar":"W9","itu":"UGA","marc":"ug","wmo":"UG","ds":"EAU","fifa":"UGA","fips":"UG","gaul":253,"ioc":"UGA","cowc":"UGA","cown":500,"fao":226,"imf":746,"ar5":"MAF","address_format":null,"eu_member":"null","states":null}},{"iso_3166_1_alpha3":"UKR","extra":{"geonameid":690791,"edgar":"2H","itu":"UKR","marc":"un","wmo":"UR","ds":"UA","fifa":"UKR","fips":"UP","gaul":254,"ioc":"UKR","cowc":"UKR","cown":369,"fao":230,"imf":926,"ar5":"EIT","address_format":"{{recipient}}\n{{street}}\n{{city}} {{region_short}}\n{{postalcode}}\n{{country}}","eu_member":"null","states":null}},{"iso_3166_1_alpha3":"UMI","extra":{"geonameid":5854968,"edgar":"0","itu":"0","marc":"ji,xf,wk,uc,up","wmo":"0","ds":"USA","fifa":"0","fips":"FQ,HQ,DQ,JQ,KQ,MQ,BQ,LQ,WQ","gaul":0,"ioc":"0","cowc":"0","cown":0,"fao":0,"imf":0,"ar5":"ASIA","address_format":null,"eu_member":"null","states":null}},{"iso_3166_1_alpha3":"URY","extra":{"geonameid":3439705,"edgar":"X3","itu":"URG","marc":"uy","wmo":"UY","ds":"ROU","fifa":"URU","fips":"UY","gaul":260,"ioc":"URU","cowc":"URU","cown":165,"fao":234,"imf":298,"ar5":"LAM","address_format":null,"eu_member":"null","states":null}},{"iso_3166_1_alpha3":"USA","extra":{"geonameid":6252001,"edgar":"0","itu":"USA","marc":"xxu","wmo":"US","ds":"USA","fifa":"USA","fips":"US","gaul":259,"ioc":"USA","cowc":"USA","cown":2,"fao":231,"imf":111,"ar5":"OECD1990","address_format":"{{recipient}}\n{{street}}\n{{city}} {{region_short}} {{postalcode}}\n{{country}}","eu_member":"null","states":null}},{"iso_3166_1_alpha3":"UZB","extra":{"geonameid":1512440,"edgar":"2K","itu":"UZB","marc":"uz","wmo":"UZ","ds":"UZ","fifa":"UZB","fips":"UZ","gaul":261,"ioc":"UZB","cowc":"UZB","cown":704,"fao":235,"imf":927,"ar5":"EIT","address_format":null,"eu_member":"null","states":null}},{"iso_3166_1_alpha3":"VAT","extra":{"geonameid":3164670,"edgar":"0","itu":"CVA","marc":"vc","wmo":"0","ds":"V","fifa":"VAT","fips":"VT","gaul":110,"ioc":"0","cowc":"PAP","cown":327,"fao":0,"imf":0,"ar5":"OECD1990","address_format":null,"eu_member":"null","states":null}},{"iso_3166_1_alpha3":"VCT","extra":{"geonameid":3577815,"edgar":"V1","itu":"VCT","marc":"xm","wmo":"VG","ds":"WV","fifa":"VIN","fips":"VC","gaul":211,"ioc":"VIN","cowc":"SVG","cown":57,"fao":191,"imf":364,"ar5":"LAM","address_format":null,"eu_member":"null","states":null}},{"iso_3166_1_alpha3":"VEN","extra":{"geonameid":3625428,"edgar":"0","itu":"VEN","marc":"ve","wmo":"VN","ds":"YV","fifa":"VEN","fips":"VE","gaul":263,"ioc":"VEN","cowc":"VEN","cown":101,"fao":236,"imf":299,"ar5":"LAM","address_format":null,"eu_member":"null","states":null}},{"iso_3166_1_alpha3":"VGB","extra":{"geonameid":3577718,"edgar":"0","itu":"VRG","marc":"vb","wmo":"VI","ds":"BVI","fifa":"VGB","fips":"VI","gaul":39,"ioc":"IVB","cowc":"0","cown":0,"fao":0,"imf":0,"ar5":"LAM","address_format":null,"eu_member":"null","states":null}},{"iso_3166_1_alpha3":"VIR","extra":{"geonameid":4796775,"edgar":"0","itu":"VIR","marc":"vi","wmo":"VI","ds":"USA","fifa":"VIR","fips":"VQ","gaul":258,"ioc":"ISV","cowc":"0","cown":0,"fao":0,"imf":0,"ar5":"LAM","address_format":null,"eu_member":"null","states":null}},{"iso_3166_1_alpha3":"VNM","extra":{"geonameid":1562822,"edgar":"Q1","itu":"VTN","marc":"vm","wmo":"VS","ds":"VN","fifa":"VIE","fips":"VM","gaul":264,"ioc":"VIE","cowc":"DRV","cown":816,"fao":237,"imf":582,"ar5":"ASIA","address_format":null,"eu_member":"null","states":null}},{"iso_3166_1_alpha3":"VUT","extra":{"geonameid":2134431,"edgar":"2L","itu":"VUT","marc":"nn","wmo":"NV","ds":"0","fifa":"VAN","fips":"NH","gaul":262,"ioc":"VAN","cowc":"VAN","cown":935,"fao":155,"imf":846,"ar5":"ASIA","address_format":null,"eu_member":"null","states":null}},{"iso_3166_1_alpha3":"WLF","extra":{"geonameid":4034749,"edgar":"0","itu":"WAL","marc":"wf","wmo":"FW","ds":"F","fifa":"WLF","fips":"WF","gaul":266,"ioc":"WAF","cowc":"0","cown":0,"fao":0,"imf":0,"ar5":"ASIA","address_format":null,"eu_member":"null","states":null}},{"iso_3166_1_alpha3":"WSM","extra":{"geonameid":4034894,"edgar":"Y0","itu":"SMO","marc":"ws","wmo":"ZM","ds":"WS","fifa":"SAM","fips":"WS","gaul":212,"ioc":"SAM","cowc":"WSM","cown":990,"fao":244,"imf":862,"ar5":"ASIA","address_format":null,"eu_member":"null","states":null}},{"iso_3166_1_alpha3":"YEM","extra":{"geonameid":69543,"edgar":"T7","itu":"YEM","marc":"ye","wmo":"YE","ds":"YAR","fifa":"YEM","fips":"YM","gaul":269,"ioc":"YEM","cowc":"YEM","cown":679,"fao":249,"imf":474,"ar5":"MAF","address_format":"{{recipient}}\n{{street}}\n{{postalcode}} {{city}}\n{{country}}","eu_member":"null","states":null}},{"iso_3166_1_alpha3":"ZAF","extra":{"geonameid":953987,"edgar":"T3","itu":"AFS","marc":"sa","wmo":"ZA","ds":"ZA","fifa":"RSA","fips":"SF","gaul":227,"ioc":"RSA","cowc":"SAF","cown":560,"fao":202,"imf":199,"ar5":"MAF","address_format":"{{recipient}}\n{{street}}\n{{city}}\n{{region}}\n{{postalcode}}\n{{country}}","eu_member":"null","states":null}},{"iso_3166_1_alpha3":"ZMB","extra":{"geonameid":895949,"edgar":"Y4","itu":"ZMB","marc":"za","wmo":"ZB","ds":"Z","fifa":"ZAM","fips":"ZA","gaul":270,"ioc":"ZAM","cowc":"ZAM","cown":551,"fao":251,"imf":754,"ar5":"MAF","address_format":null,"eu_member":"null","states":null}},{"iso_3166_1_alpha3":"ZWE","extra":{"geonameid":878675,"edgar":"Y5","itu":"ZWE","marc":"rh","wmo":"ZW","ds":"ZW","fifa":"ZIM","fips":"ZI","gaul":271,"ioc":"ZIM","cowc":"ZIM","cown":552,"fao":181,"imf":698,"ar5":"MAF","address_format":null,"eu_member":"null","states":null}}]